{
  "type": "FeatureCollection",
  "features": [
    {
      "type": "Feature",
      "properties": {
        "name": "Ganjihala",
        "type": "village",
        "population": 5000,
        "elevation_m": 0,
        "source": "OpenStreetMap"
      },
      "geometry": {
        "type": "Point",
        "coordinates": [
          75.9836195,
          16.163991
        ]
      }
    },
    {
      "type": "Feature",
      "properties": {
        "name": "Dannuru",
        "type": "village",
        "population": 5000,
        "elevation_m": 0,
        "source": "OpenStreetMap"
      },
      "geometry": {
        "type": "Point",
        "coordinates": [
          76.0945222,
          16.1882744
        ]
      }
    },
    {
      "type": "Feature",
      "properties": {
        "name": "Sunaga",
        "type": "village",
        "population": 5000,
        "elevation_m": 0,
        "source": "OpenStreetMap"
      },
      "geometry": {
        "type": "Point",
        "coordinates": [
          75.6184656,
          16.2893106
        ]
      }
    },
    {
      "type": "Feature",
      "properties": {
        "name": "Bilagi",
        "type": "town",
        "population": 15000,
        "elevation_m": 0,
        "source": "OpenStreetMap"
      },
      "geometry": {
        "type": "Point",
        "coordinates": [
          75.6190861,
          16.3464175
        ]
      }
    },
    {
      "type": "Feature",
      "properties": {
        "name": "Muddebihala",
        "type": "town",
        "population": 30000,
        "elevation_m": 0,
        "source": "OpenStreetMap"
      },
      "geometry": {
        "type": "Point",
        "coordinates": [
          76.1339556,
          16.3351078
        ]
      }
    },
    {
      "type": "Feature",
      "properties": {
        "name": "Kolahara",
        "type": "town",
        "population": 25000,
        "elevation_m": 0,
        "source": "OpenStreetMap"
      },
      "geometry": {
        "type": "Point",
        "coordinates": [
          75.695105,
          16.4719099
        ]
      }
    },
    {
      "type": "Feature",
      "properties": {
        "name": "Basavana Bagevadi",
        "type": "town",
        "population": 5000,
        "elevation_m": 0,
        "source": "OpenStreetMap"
      },
      "geometry": {
        "type": "Point",
        "coordinates": [
          75.9747123,
          16.5738547
        ]
      }
    },
    {
      "type": "Feature",
      "properties": {
        "name": "Shirura",
        "type": "village",
        "population": 5000,
        "elevation_m": 0,
        "source": "OpenStreetMap"
      },
      "geometry": {
        "type": "Point",
        "coordinates": [
          75.7830011,
          16.09805
        ]
      }
    },
    {
      "type": "Feature",
      "properties": {
        "name": "Marimatti",
        "type": "village",
        "population": 5000,
        "elevation_m": 0,
        "source": "OpenStreetMap"
      },
      "geometry": {
        "type": "Point",
        "coordinates": [
          75.9041377,
          16.3507121
        ]
      }
    },
    {
      "type": "Feature",
      "properties": {
        "name": "Nidagundi",
        "type": "town",
        "population": 25000,
        "elevation_m": 0,
        "source": "OpenStreetMap"
      },
      "geometry": {
        "type": "Point",
        "coordinates": [
          75.9363303,
          16.3588856
        ]
      }
    },
    {
      "type": "Feature",
      "properties": {
        "name": "Chimmalagi",
        "type": "village",
        "population": 5000,
        "elevation_m": 0,
        "source": "OpenStreetMap"
      },
      "geometry": {
        "type": "Point",
        "coordinates": [
          75.8480431,
          16.4191951
        ]
      }
    },
    {
      "type": "Feature",
      "properties": {
        "name": "Telagi",
        "type": "village",
        "population": 5000,
        "elevation_m": 0,
        "source": "OpenStreetMap"
      },
      "geometry": {
        "type": "Point",
        "coordinates": [
          75.8178219,
          16.4749643
        ]
      }
    },
    {
      "type": "Feature",
      "properties": {
        "name": "Bagalkote",
        "type": "city",
        "population": 112000,
        "elevation_m": 0,
        "source": "OpenStreetMap"
      },
      "geometry": {
        "type": "Point",
        "coordinates": [
          75.6967919,
          16.1853166
        ]
      }
    },
    {
      "type": "Feature",
      "properties": {
        "name": "Kamatagi",
        "type": "town",
        "population": 25000,
        "elevation_m": 0,
        "source": "OpenStreetMap"
      },
      "geometry": {
        "type": "Point",
        "coordinates": [
          75.8659183,
          16.1051675
        ]
      }
    },
    {
      "type": "Feature",
      "properties": {
        "name": "Bevuru",
        "type": "village",
        "population": 5000,
        "elevation_m": 0,
        "source": "OpenStreetMap"
      },
      "geometry": {
        "type": "Point",
        "coordinates": [
          75.8911393,
          16.2082932
        ]
      }
    },
    {
      "type": "Feature",
      "properties": {
        "name": "Masuti",
        "type": "village",
        "population": 5000,
        "elevation_m": 0,
        "source": "OpenStreetMap"
      },
      "geometry": {
        "type": "Point",
        "coordinates": [
          75.7847969,
          16.5077816
        ]
      }
    },
    {
      "type": "Feature",
      "properties": {
        "name": "Kudala Sangama",
        "type": "village",
        "population": 5000,
        "elevation_m": 0,
        "source": "OpenStreetMap"
      },
      "geometry": {
        "type": "Point",
        "coordinates": [
          76.0604244,
          16.2033992
        ]
      }
    },
    {
      "type": "Feature",
      "properties": {
        "name": "Kudagi",
        "type": "village",
        "population": 5000,
        "elevation_m": 0,
        "source": "OpenStreetMap"
      },
      "geometry": {
        "type": "Point",
        "coordinates": [
          75.8299681,
          16.5273458
        ]
      }
    },
    {
      "type": "Feature",
      "properties": {
        "name": "Hallura",
        "type": "village",
        "population": 5000,
        "elevation_m": 0,
        "source": "OpenStreetMap"
      },
      "geometry": {
        "type": "Point",
        "coordinates": [
          75.8472961,
          16.1978375
        ]
      }
    },
    {
      "type": "Feature",
      "properties": {
        "name": "Rolli",
        "type": "village",
        "population": 5000,
        "elevation_m": 0,
        "source": "OpenStreetMap"
      },
      "geometry": {
        "type": "Point",
        "coordinates": [
          75.6934812,
          16.3654469
        ]
      }
    },
    {
      "type": "Feature",
      "properties": {
        "name": "Tangadagi",
        "type": "village",
        "population": 5000,
        "elevation_m": 0,
        "source": "OpenStreetMap"
      },
      "geometry": {
        "type": "Point",
        "coordinates": [
          76.0935452,
          16.2137232
        ]
      }
    },
    {
      "type": "Feature",
      "properties": {
        "name": "Golasangi",
        "type": "village",
        "population": 5000,
        "elevation_m": 0,
        "source": "OpenStreetMap"
      },
      "geometry": {
        "type": "Point",
        "coordinates": [
          75.8775918,
          16.4927269
        ]
      }
    },
    {
      "type": "Feature",
      "properties": {
        "name": "Kuntoji",
        "type": "village",
        "population": 5000,
        "elevation_m": 0,
        "source": "OpenStreetMap"
      },
      "geometry": {
        "type": "Point",
        "coordinates": [
          76.1633179,
          16.3613341
        ]
      }
    },
    {
      "type": "Feature",
      "properties": {
        "name": "Achanura",
        "type": "village",
        "population": 5000,
        "elevation_m": 0,
        "source": "OpenStreetMap"
      },
      "geometry": {
        "type": "Point",
        "coordinates": [
          75.827521,
          16.2363286
        ]
      }
    },
    {
      "type": "Feature",
      "properties": {
        "name": "Bairamatti",
        "type": "village",
        "population": 5000,
        "elevation_m": 0,
        "source": "OpenStreetMap"
      },
      "geometry": {
        "type": "Point",
        "coordinates": [
          75.8539013,
          16.1803446
        ]
      }
    },
    {
      "type": "Feature",
      "properties": {
        "name": "Unknown",
        "type": "village",
        "population": 5000,
        "elevation_m": 0,
        "source": "OpenStreetMap"
      },
      "geometry": {
        "type": "Point",
        "coordinates": [
          75.7289605,
          16.1461218
        ]
      }
    },
    {
      "type": "Feature",
      "properties": {
        "name": "Ramapura",
        "type": "village",
        "population": 5000,
        "elevation_m": 0,
        "source": "OpenStreetMap"
      },
      "geometry": {
        "type": "Point",
        "coordinates": [
          75.8911781,
          16.3016909
        ]
      }
    },
    {
      "type": "Feature",
      "properties": {
        "name": "Kirasura",
        "type": "village",
        "population": 5000,
        "elevation_m": 0,
        "source": "OpenStreetMap"
      },
      "geometry": {
        "type": "Point",
        "coordinates": [
          75.755616,
          16.1926029
        ]
      }
    },
    {
      "type": "Feature",
      "properties": {
        "name": "Ingalagi",
        "type": "village",
        "population": 5000,
        "elevation_m": 0,
        "source": "OpenStreetMap"
      },
      "geometry": {
        "type": "Point",
        "coordinates": [
          75.8855694,
          16.1132868
        ]
      }
    },
    {
      "type": "Feature",
      "properties": {
        "name": "Jadramakunti",
        "type": "village",
        "population": 5000,
        "elevation_m": 0,
        "source": "OpenStreetMap"
      },
      "geometry": {
        "type": "Point",
        "coordinates": [
          75.8210428,
          16.2855931
        ]
      }
    },
    {
      "type": "Feature",
      "properties": {
        "name": "Chittaragi",
        "type": "village",
        "population": 5000,
        "elevation_m": 0,
        "source": "OpenStreetMap"
      },
      "geometry": {
        "type": "Point",
        "coordinates": [
          75.9739668,
          16.1184392
        ]
      }
    },
    {
      "type": "Feature",
      "properties": {
        "name": "Asangi",
        "type": "village",
        "population": 5000,
        "elevation_m": 0,
        "source": "OpenStreetMap"
      },
      "geometry": {
        "type": "Point",
        "coordinates": [
          75.7416817,
          16.4887301
        ]
      }
    },
    {
      "type": "Feature",
      "properties": {
        "name": "Siddapura",
        "type": "village",
        "population": 5000,
        "elevation_m": 0,
        "source": "OpenStreetMap"
      },
      "geometry": {
        "type": "Point",
        "coordinates": [
          76.0351747,
          16.3907992
        ]
      }
    },
    {
      "type": "Feature",
      "properties": {
        "name": "Hallura",
        "type": "village",
        "population": 5000,
        "elevation_m": 0,
        "source": "OpenStreetMap"
      },
      "geometry": {
        "type": "Point",
        "coordinates": [
          76.1228017,
          16.4645361
        ]
      }
    },
    {
      "type": "Feature",
      "properties": {
        "name": "Basarakoda",
        "type": "village",
        "population": 5000,
        "elevation_m": 0,
        "source": "OpenStreetMap"
      },
      "geometry": {
        "type": "Point",
        "coordinates": [
          76.0778609,
          16.3970529
        ]
      }
    },
    {
      "type": "Feature",
      "properties": {
        "name": "Kalagi",
        "type": "village",
        "population": 5000,
        "elevation_m": 0,
        "source": "OpenStreetMap"
      },
      "geometry": {
        "type": "Point",
        "coordinates": [
          76.0112822,
          16.3124544
        ]
      }
    },
    {
      "type": "Feature",
      "properties": {
        "name": "Rudagi",
        "type": "village",
        "population": 5000,
        "elevation_m": 0,
        "source": "OpenStreetMap"
      },
      "geometry": {
        "type": "Point",
        "coordinates": [
          76.0737419,
          16.4274748
        ]
      }
    },
    {
      "type": "Feature",
      "properties": {
        "name": "Hadalageri",
        "type": "village",
        "population": 5000,
        "elevation_m": 0,
        "source": "OpenStreetMap"
      },
      "geometry": {
        "type": "Point",
        "coordinates": [
          76.1037224,
          16.3205981
        ]
      }
    },
    {
      "type": "Feature",
      "properties": {
        "name": "Yalagura",
        "type": "village",
        "population": 5000,
        "elevation_m": 0,
        "source": "OpenStreetMap"
      },
      "geometry": {
        "type": "Point",
        "coordinates": [
          75.9261833,
          16.3280166
        ]
      }
    },
    {
      "type": "Feature",
      "properties": {
        "name": "Bidarakundi",
        "type": "village",
        "population": 5000,
        "elevation_m": 0,
        "source": "OpenStreetMap"
      },
      "geometry": {
        "type": "Point",
        "coordinates": [
          76.1201194,
          16.36136
        ]
      }
    },
    {
      "type": "Feature",
      "properties": {
        "name": "Unknown",
        "type": "village",
        "population": 5000,
        "elevation_m": 0,
        "source": "OpenStreetMap"
      },
      "geometry": {
        "type": "Point",
        "coordinates": [
          76.0687528,
          16.3089114
        ]
      }
    },
    {
      "type": "Feature",
      "properties": {
        "name": "Kolura",
        "type": "village",
        "population": 5000,
        "elevation_m": 0,
        "source": "OpenStreetMap"
      },
      "geometry": {
        "type": "Point",
        "coordinates": [
          76.1498934,
          16.2711134
        ]
      }
    },
    {
      "type": "Feature",
      "properties": {
        "name": "Hullura",
        "type": "village",
        "population": 5000,
        "elevation_m": 0,
        "source": "OpenStreetMap"
      },
      "geometry": {
        "type": "Point",
        "coordinates": [
          75.998942,
          16.3581964
        ]
      }
    },
    {
      "type": "Feature",
      "properties": {
        "name": "Hebbala",
        "type": "village",
        "population": 5000,
        "elevation_m": 0,
        "source": "OpenStreetMap"
      },
      "geometry": {
        "type": "Point",
        "coordinates": [
          75.9419779,
          16.4374532
        ]
      }
    },
    {
      "type": "Feature",
      "properties": {
        "name": "Unnibhavi",
        "type": "village",
        "population": 5000,
        "elevation_m": 0,
        "source": "OpenStreetMap"
      },
      "geometry": {
        "type": "Point",
        "coordinates": [
          75.9137811,
          16.4427251
        ]
      }
    },
    {
      "type": "Feature",
      "properties": {
        "name": "Hangaragi",
        "type": "village",
        "population": 5000,
        "elevation_m": 0,
        "source": "OpenStreetMap"
      },
      "geometry": {
        "type": "Point",
        "coordinates": [
          75.9288992,
          16.4756784
        ]
      }
    },
    {
      "type": "Feature",
      "properties": {
        "name": "Vandala",
        "type": "village",
        "population": 5000,
        "elevation_m": 0,
        "source": "OpenStreetMap"
      },
      "geometry": {
        "type": "Point",
        "coordinates": [
          75.8853831,
          16.4147867
        ]
      }
    },
    {
      "type": "Feature",
      "properties": {
        "name": "Siddanatha",
        "type": "village",
        "population": 5000,
        "elevation_m": 0,
        "source": "OpenStreetMap"
      },
      "geometry": {
        "type": "Point",
        "coordinates": [
          75.7667933,
          16.4197217
        ]
      }
    },
    {
      "type": "Feature",
      "properties": {
        "name": "Kauvalagi",
        "type": "village",
        "population": 5000,
        "elevation_m": 0,
        "source": "OpenStreetMap"
      },
      "geometry": {
        "type": "Point",
        "coordinates": [
          75.817063,
          16.4410469
        ]
      }
    },
    {
      "type": "Feature",
      "properties": {
        "name": "Biraladinni",
        "type": "village",
        "population": 5000,
        "elevation_m": 0,
        "source": "OpenStreetMap"
      },
      "geometry": {
        "type": "Point",
        "coordinates": [
          75.8895517,
          16.4548838
        ]
      }
    },
    {
      "type": "Feature",
      "properties": {
        "name": "Hanamapura",
        "type": "village",
        "population": 5000,
        "elevation_m": 0,
        "source": "OpenStreetMap"
      },
      "geometry": {
        "type": "Point",
        "coordinates": [
          75.7538108,
          16.4372923
        ]
      }
    },
    {
      "type": "Feature",
      "properties": {
        "name": "Arashanagi",
        "type": "village",
        "population": 5000,
        "elevation_m": 0,
        "source": "OpenStreetMap"
      },
      "geometry": {
        "type": "Point",
        "coordinates": [
          75.8046855,
          16.423105
        ]
      }
    },
    {
      "type": "Feature",
      "properties": {
        "name": "Dhavalagi",
        "type": "village",
        "population": 5000,
        "elevation_m": 0,
        "source": "OpenStreetMap"
      },
      "geometry": {
        "type": "Point",
        "coordinates": [
          76.1185097,
          16.4341777
        ]
      }
    },
    {
      "type": "Feature",
      "properties": {
        "name": "Itagi",
        "type": "village",
        "population": 5000,
        "elevation_m": 0,
        "source": "OpenStreetMap"
      },
      "geometry": {
        "type": "Point",
        "coordinates": [
          76.0018106,
          16.380352
        ]
      }
    },
    {
      "type": "Feature",
      "properties": {
        "name": "Nagura",
        "type": "village",
        "population": 5000,
        "elevation_m": 0,
        "source": "OpenStreetMap"
      },
      "geometry": {
        "type": "Point",
        "coordinates": [
          75.9786831,
          16.5348767
        ]
      }
    },
    {
      "type": "Feature",
      "properties": {
        "name": "Gudadinni",
        "type": "village",
        "population": 5000,
        "elevation_m": 0,
        "source": "OpenStreetMap"
      },
      "geometry": {
        "type": "Point",
        "coordinates": [
          76.021068,
          16.4065979
        ]
      }
    },
    {
      "type": "Feature",
      "properties": {
        "name": "Muttagi",
        "type": "village",
        "population": 5000,
        "elevation_m": 0,
        "source": "OpenStreetMap"
      },
      "geometry": {
        "type": "Point",
        "coordinates": [
          75.8878469,
          16.5260272
        ]
      }
    },
    {
      "type": "Feature",
      "properties": {
        "name": "Mannikatti",
        "type": "village",
        "population": 5000,
        "elevation_m": 0,
        "source": "OpenStreetMap"
      },
      "geometry": {
        "type": "Point",
        "coordinates": [
          75.7735367,
          16.1664719
        ]
      }
    },
    {
      "type": "Feature",
      "properties": {
        "name": "Bhagawati",
        "type": "village",
        "population": 5000,
        "elevation_m": 0,
        "source": "OpenStreetMap"
      },
      "geometry": {
        "type": "Point",
        "coordinates": [
          75.8076908,
          16.1952829
        ]
      }
    },
    {
      "type": "Feature",
      "properties": {
        "name": "Benakatti",
        "type": "village",
        "population": 5000,
        "elevation_m": 0,
        "source": "OpenStreetMap"
      },
      "geometry": {
        "type": "Point",
        "coordinates": [
          75.8087829,
          16.1513034
        ]
      }
    },
    {
      "type": "Feature",
      "properties": {
        "name": "Gangura",
        "type": "village",
        "population": 5000,
        "elevation_m": 0,
        "source": "OpenStreetMap"
      },
      "geometry": {
        "type": "Point",
        "coordinates": [
          75.9625146,
          16.1112252
        ]
      }
    },
    {
      "type": "Feature",
      "properties": {
        "name": "Ambalikoppa",
        "type": "village",
        "population": 5000,
        "elevation_m": 0,
        "source": "OpenStreetMap"
      },
      "geometry": {
        "type": "Point",
        "coordinates": [
          75.9106439,
          16.1554547
        ]
      }
    },
    {
      "type": "Feature",
      "properties": {
        "name": "Herakalla",
        "type": "village",
        "population": 5000,
        "elevation_m": 0,
        "source": "OpenStreetMap"
      },
      "geometry": {
        "type": "Point",
        "coordinates": [
          75.6903856,
          16.2665229
        ]
      }
    },
    {
      "type": "Feature",
      "properties": {
        "name": "Yalligutti",
        "type": "village",
        "population": 5000,
        "elevation_m": 0,
        "source": "OpenStreetMap"
      },
      "geometry": {
        "type": "Point",
        "coordinates": [
          75.7056341,
          16.2431151
        ]
      }
    },
    {
      "type": "Feature",
      "properties": {
        "name": "Tummaramatti",
        "type": "village",
        "population": 5000,
        "elevation_m": 0,
        "source": "OpenStreetMap"
      },
      "geometry": {
        "type": "Point",
        "coordinates": [
          75.6427627,
          16.2610805
        ]
      }
    },
    {
      "type": "Feature",
      "properties": {
        "name": "Unknown",
        "type": "village",
        "population": 5000,
        "elevation_m": 0,
        "source": "OpenStreetMap"
      },
      "geometry": {
        "type": "Point",
        "coordinates": [
          75.6268553,
          16.2585587
        ]
      }
    },
    {
      "type": "Feature",
      "properties": {
        "name": "Tolamatti",
        "type": "village",
        "population": 5000,
        "elevation_m": 0,
        "source": "OpenStreetMap"
      },
      "geometry": {
        "type": "Point",
        "coordinates": [
          75.6617823,
          16.3016715
        ]
      }
    },
    {
      "type": "Feature",
      "properties": {
        "name": "Sutagundara",
        "type": "village",
        "population": 5000,
        "elevation_m": 0,
        "source": "OpenStreetMap"
      },
      "geometry": {
        "type": "Point",
        "coordinates": [
          75.9880177,
          16.2844456
        ]
      }
    },
    {
      "type": "Feature",
      "properties": {
        "name": "Chikkamyageri",
        "type": "village",
        "population": 5000,
        "elevation_m": 0,
        "source": "OpenStreetMap"
      },
      "geometry": {
        "type": "Point",
        "coordinates": [
          76.0302652,
          16.2756058
        ]
      }
    },
    {
      "type": "Feature",
      "properties": {
        "name": "Ronihala",
        "type": "village",
        "population": 5000,
        "elevation_m": 0,
        "source": "OpenStreetMap"
      },
      "geometry": {
        "type": "Point",
        "coordinates": [
          75.7023487,
          16.5095359
        ]
      }
    },
    {
      "type": "Feature",
      "properties": {
        "name": "Bodanayakadinni",
        "type": "village",
        "population": 5000,
        "elevation_m": 0,
        "source": "OpenStreetMap"
      },
      "geometry": {
        "type": "Point",
        "coordinates": [
          75.8979386,
          16.2500826
        ]
      }
    },
    {
      "type": "Feature",
      "properties": {
        "name": "Mankani",
        "type": "village",
        "population": 5000,
        "elevation_m": 0,
        "source": "OpenStreetMap"
      },
      "geometry": {
        "type": "Point",
        "coordinates": [
          75.9672455,
          16.2905925
        ]
      }
    },
    {
      "type": "Feature",
      "properties": {
        "name": "Nayanegali",
        "type": "village",
        "population": 5000,
        "elevation_m": 0,
        "source": "OpenStreetMap"
      },
      "geometry": {
        "type": "Point",
        "coordinates": [
          75.9458536,
          16.2925753
        ]
      }
    },
    {
      "type": "Feature",
      "properties": {
        "name": "Bilkerura",
        "type": "village",
        "population": 5000,
        "elevation_m": 0,
        "source": "OpenStreetMap"
      },
      "geometry": {
        "type": "Point",
        "coordinates": [
          75.8626873,
          16.2621939
        ]
      }
    },
    {
      "type": "Feature",
      "properties": {
        "name": "Hire Magi",
        "type": "village",
        "population": 5000,
        "elevation_m": 0,
        "source": "OpenStreetMap"
      },
      "geometry": {
        "type": "Point",
        "coordinates": [
          75.9331117,
          16.1099663
        ]
      }
    },
    {
      "type": "Feature",
      "properties": {
        "name": "Budihala",
        "type": "village",
        "population": 5000,
        "elevation_m": 0,
        "source": "OpenStreetMap"
      },
      "geometry": {
        "type": "Point",
        "coordinates": [
          75.913586,
          16.1403089
        ]
      }
    },
    {
      "type": "Feature",
      "properties": {
        "name": "Mugalolli",
        "type": "village",
        "population": 5000,
        "elevation_m": 0,
        "source": "OpenStreetMap"
      },
      "geometry": {
        "type": "Point",
        "coordinates": [
          75.7544639,
          16.2218012
        ]
      }
    },
    {
      "type": "Feature",
      "properties": {
        "name": "Badagandi",
        "type": "village",
        "population": 5000,
        "elevation_m": 0,
        "source": "OpenStreetMap"
      },
      "geometry": {
        "type": "Point",
        "coordinates": [
          75.645931,
          16.3480108
        ]
      }
    },
    {
      "type": "Feature",
      "properties": {
        "name": "Girisagara",
        "type": "village",
        "population": 5000,
        "elevation_m": 0,
        "source": "OpenStreetMap"
      },
      "geometry": {
        "type": "Point",
        "coordinates": [
          75.7059602,
          16.3553302
        ]
      }
    },
    {
      "type": "Feature",
      "properties": {
        "name": "Handaragalla",
        "type": "village",
        "population": 5000,
        "elevation_m": 0,
        "source": "OpenStreetMap"
      },
      "geometry": {
        "type": "Point",
        "coordinates": [
          76.0545711,
          16.2836441
        ]
      }
    },
    {
      "type": "Feature",
      "properties": {
        "name": "Alakoppa",
        "type": "village",
        "population": 5000,
        "elevation_m": 0,
        "source": "OpenStreetMap"
      },
      "geometry": {
        "type": "Point",
        "coordinates": [
          76.0470838,
          16.4570672
        ]
      }
    },
    {
      "type": "Feature",
      "properties": {
        "name": "Jettagi",
        "type": "village",
        "population": 5000,
        "elevation_m": 0,
        "source": "OpenStreetMap"
      },
      "geometry": {
        "type": "Point",
        "coordinates": [
          76.0466272,
          16.3628654
        ]
      }
    },
    {
      "type": "Feature",
      "properties": {
        "name": "Basaveshwara School",
        "type": "school",
        "population": 0,
        "elevation_m": 0,
        "source": "OpenStreetMap"
      },
      "geometry": {
        "type": "Point",
        "coordinates": [
          75.6563136,
          16.1743998
        ]
      }
    },
    {
      "type": "Feature",
      "properties": {
        "name": "St Annie's Convent School",
        "type": "school",
        "population": 0,
        "elevation_m": 0,
        "source": "OpenStreetMap"
      },
      "geometry": {
        "type": "Point",
        "coordinates": [
          75.6625684,
          16.1805022
        ]
      }
    },
    {
      "type": "Feature",
      "properties": {
        "name": "Vishwachetana School",
        "type": "school",
        "population": 0,
        "elevation_m": 0,
        "source": "OpenStreetMap"
      },
      "geometry": {
        "type": "Point",
        "coordinates": [
          75.6945235,
          16.1813539
        ]
      }
    },
    {
      "type": "Feature",
      "properties": {
        "name": "Amar Urdu School",
        "type": "school",
        "population": 0,
        "elevation_m": 0,
        "source": "OpenStreetMap"
      },
      "geometry": {
        "type": "Point",
        "coordinates": [
          75.6914872,
          16.1807779
        ]
      }
    },
    {
      "type": "Feature",
      "properties": {
        "name": "Government Girl's High School",
        "type": "school",
        "population": 0,
        "elevation_m": 0,
        "source": "OpenStreetMap"
      },
      "geometry": {
        "type": "Point",
        "coordinates": [
          75.6945128,
          16.1872069
        ]
      }
    },
    {
      "type": "Feature",
      "properties": {
        "name": "Areshankara",
        "type": "village",
        "population": 5000,
        "elevation_m": 0,
        "source": "OpenStreetMap"
      },
      "geometry": {
        "type": "Point",
        "coordinates": [
          76.0170792,
          16.405939
        ]
      }
    },
    {
      "type": "Feature",
      "properties": {
        "name": "Kanakala",
        "type": "village",
        "population": 5000,
        "elevation_m": 0,
        "source": "OpenStreetMap"
      },
      "geometry": {
        "type": "Point",
        "coordinates": [
          76.0399335,
          16.4672253
        ]
      }
    },
    {
      "type": "Feature",
      "properties": {
        "name": "Malaghana",
        "type": "village",
        "population": 5000,
        "elevation_m": 0,
        "source": "OpenStreetMap"
      },
      "geometry": {
        "type": "Point",
        "coordinates": [
          75.7391217,
          16.5373722
        ]
      }
    },
    {
      "type": "Feature",
      "properties": {
        "name": "Nebageri",
        "type": "village",
        "population": 5000,
        "elevation_m": 0,
        "source": "OpenStreetMap"
      },
      "geometry": {
        "type": "Point",
        "coordinates": [
          76.1146447,
          16.2822676
        ]
      }
    },
    {
      "type": "Feature",
      "properties": {
        "name": "Takkalaki",
        "type": "village",
        "population": 5000,
        "elevation_m": 0,
        "source": "OpenStreetMap"
      },
      "geometry": {
        "type": "Point",
        "coordinates": [
          75.9091304,
          16.5484866
        ]
      }
    },
    {
      "type": "Feature",
      "properties": {
        "name": "Mattihala",
        "type": "village",
        "population": 5000,
        "elevation_m": 0,
        "source": "OpenStreetMap"
      },
      "geometry": {
        "type": "Point",
        "coordinates": [
          75.7463784,
          16.4599743
        ]
      }
    },
    {
      "type": "Feature",
      "properties": {
        "name": "Mane Hospital",
        "type": "hospital",
        "population": 0,
        "elevation_m": 0,
        "source": "OpenStreetMap"
      },
      "geometry": {
        "type": "Point",
        "coordinates": [
          75.6990611,
          16.1797927
        ]
      }
    },
    {
      "type": "Feature",
      "properties": {
        "name": "Basaveshwar Polytechnic",
        "type": "school",
        "population": 0,
        "elevation_m": 0,
        "source": "OpenStreetMap"
      },
      "geometry": {
        "type": "Point",
        "coordinates": [
          75.7081538,
          16.1853773
        ]
      }
    },
    {
      "type": "Feature",
      "properties": {
        "name": "Hunashyala",
        "type": "village",
        "population": 5000,
        "elevation_m": 0,
        "source": "OpenStreetMap"
      },
      "geometry": {
        "type": "Point",
        "coordinates": [
          75.8792888,
          16.4341318
        ]
      }
    },
    {
      "type": "Feature",
      "properties": {
        "name": "Narasalagi",
        "type": "village",
        "population": 5000,
        "elevation_m": 0,
        "source": "OpenStreetMap"
      },
      "geometry": {
        "type": "Point",
        "coordinates": [
          76.0044052,
          16.5010799
        ]
      }
    },
    {
      "type": "Feature",
      "properties": {
        "name": "Agasabala",
        "type": "village",
        "population": 5000,
        "elevation_m": 0,
        "source": "OpenStreetMap"
      },
      "geometry": {
        "type": "Point",
        "coordinates": [
          76.0955936,
          16.4772264
        ]
      }
    },
    {
      "type": "Feature",
      "properties": {
        "name": "Devura",
        "type": "village",
        "population": 5000,
        "elevation_m": 0,
        "source": "OpenStreetMap"
      },
      "geometry": {
        "type": "Point",
        "coordinates": [
          76.0745883,
          16.26445
        ]
      }
    },
    {
      "type": "Feature",
      "properties": {
        "name": "Kannala",
        "type": "village",
        "population": 5000,
        "elevation_m": 0,
        "source": "OpenStreetMap"
      },
      "geometry": {
        "type": "Point",
        "coordinates": [
          76.066411,
          16.4883823
        ]
      }
    },
    {
      "type": "Feature",
      "properties": {
        "name": "Talewada",
        "type": "village",
        "population": 5000,
        "elevation_m": 0,
        "source": "OpenStreetMap"
      },
      "geometry": {
        "type": "Point",
        "coordinates": [
          75.8121426,
          16.5548684
        ]
      }
    },
    {
      "type": "Feature",
      "properties": {
        "name": "Baluti",
        "type": "village",
        "population": 5000,
        "elevation_m": 0,
        "source": "OpenStreetMap"
      },
      "geometry": {
        "type": "Point",
        "coordinates": [
          75.7321856,
          16.4270563
        ]
      }
    },
    {
      "type": "Feature",
      "properties": {
        "name": "Unknown",
        "type": "village",
        "population": 5000,
        "elevation_m": 0,
        "source": "OpenStreetMap"
      },
      "geometry": {
        "type": "Point",
        "coordinates": [
          75.8167727,
          16.4092309
        ]
      }
    },
    {
      "type": "Feature",
      "properties": {
        "name": "Byalyala",
        "type": "village",
        "population": 5000,
        "elevation_m": 0,
        "source": "OpenStreetMap"
      },
      "geometry": {
        "type": "Point",
        "coordinates": [
          76.0114048,
          16.4363776
        ]
      }
    },
    {
      "type": "Feature",
      "properties": {
        "name": "Kodaganura",
        "type": "village",
        "population": 5000,
        "elevation_m": 0,
        "source": "OpenStreetMap"
      },
      "geometry": {
        "type": "Point",
        "coordinates": [
          75.9981942,
          16.4605357
        ]
      }
    },
    {
      "type": "Feature",
      "properties": {
        "name": "Abbihala",
        "type": "hamlet",
        "population": 500,
        "elevation_m": 0,
        "source": "OpenStreetMap"
      },
      "geometry": {
        "type": "Point",
        "coordinates": [
          75.9206339,
          16.4109904
        ]
      }
    },
    {
      "type": "Feature",
      "properties": {
        "name": "Balabatti",
        "type": "village",
        "population": 5000,
        "elevation_m": 0,
        "source": "OpenStreetMap"
      },
      "geometry": {
        "type": "Point",
        "coordinates": [
          75.9824037,
          16.3205709
        ]
      }
    },
    {
      "type": "Feature",
      "properties": {
        "name": "Budihala",
        "type": "village",
        "population": 5000,
        "elevation_m": 0,
        "source": "OpenStreetMap"
      },
      "geometry": {
        "type": "Point",
        "coordinates": [
          75.9574622,
          16.3080755
        ]
      }
    },
    {
      "type": "Feature",
      "properties": {
        "name": "Gonala",
        "type": "village",
        "population": 5000,
        "elevation_m": 0,
        "source": "OpenStreetMap"
      },
      "geometry": {
        "type": "Point",
        "coordinates": [
          75.9381376,
          16.3850574
        ]
      }
    },
    {
      "type": "Feature",
      "properties": {
        "name": "Kashinakunti",
        "type": "hamlet",
        "population": 500,
        "elevation_m": 0,
        "source": "OpenStreetMap"
      },
      "geometry": {
        "type": "Point",
        "coordinates": [
          75.9746813,
          16.3262104
        ]
      }
    },
    {
      "type": "Feature",
      "properties": {
        "name": "Kirishyala",
        "type": "village",
        "population": 5000,
        "elevation_m": 0,
        "source": "OpenStreetMap"
      },
      "geometry": {
        "type": "Point",
        "coordinates": [
          75.931225,
          16.4119412
        ]
      }
    },
    {
      "type": "Feature",
      "properties": {
        "name": "Madinala",
        "type": "village",
        "population": 5000,
        "elevation_m": 0,
        "source": "OpenStreetMap"
      },
      "geometry": {
        "type": "Point",
        "coordinates": [
          76.0721138,
          16.3561841
        ]
      }
    },
    {
      "type": "Feature",
      "properties": {
        "name": "Sangapura",
        "type": "village",
        "population": 5000,
        "elevation_m": 0,
        "source": "OpenStreetMap"
      },
      "geometry": {
        "type": "Point",
        "coordinates": [
          75.8690436,
          16.2298221
        ]
      }
    },
    {
      "type": "Feature",
      "properties": {
        "name": "Timmapura",
        "type": "village",
        "population": 5000,
        "elevation_m": 0,
        "source": "OpenStreetMap"
      },
      "geometry": {
        "type": "Point",
        "coordinates": [
          76.0285076,
          16.1004546
        ]
      }
    },
    {
      "type": "Feature",
      "properties": {
        "name": "Bisaladinni",
        "type": "village",
        "population": 5000,
        "elevation_m": 0,
        "source": "OpenStreetMap"
      },
      "geometry": {
        "type": "Point",
        "coordinates": [
          76.0394971,
          16.2306286
        ]
      }
    },
    {
      "type": "Feature",
      "properties": {
        "name": "Hiregulabala",
        "type": "village",
        "population": 5000,
        "elevation_m": 0,
        "source": "OpenStreetMap"
      },
      "geometry": {
        "type": "Point",
        "coordinates": [
          75.8546768,
          16.3119031
        ]
      }
    },
    {
      "type": "Feature",
      "properties": {
        "name": "Kadlimatti",
        "type": "village",
        "population": 5000,
        "elevation_m": 0,
        "source": "OpenStreetMap"
      },
      "geometry": {
        "type": "Point",
        "coordinates": [
          75.7951916,
          16.2342753
        ]
      }
    },
    {
      "type": "Feature",
      "properties": {
        "name": "Katagura",
        "type": "village",
        "population": 5000,
        "elevation_m": 0,
        "source": "OpenStreetMap"
      },
      "geometry": {
        "type": "Point",
        "coordinates": [
          76.0570703,
          16.2565237
        ]
      }
    },
    {
      "type": "Feature",
      "properties": {
        "name": "Lavaleshwara",
        "type": "village",
        "population": 5000,
        "elevation_m": 0,
        "source": "OpenStreetMap"
      },
      "geometry": {
        "type": "Point",
        "coordinates": [
          75.8109511,
          16.2561334
        ]
      }
    },
    {
      "type": "Feature",
      "properties": {
        "name": "Mudapalajivi",
        "type": "village",
        "population": 5000,
        "elevation_m": 0,
        "source": "OpenStreetMap"
      },
      "geometry": {
        "type": "Point",
        "coordinates": [
          75.8076814,
          16.2350295
        ]
      }
    },
    {
      "type": "Feature",
      "properties": {
        "name": "Turadagi",
        "type": "village",
        "population": 5000,
        "elevation_m": 0,
        "source": "OpenStreetMap"
      },
      "geometry": {
        "type": "Point",
        "coordinates": [
          76.0526228,
          16.2393956
        ]
      }
    },
    {
      "type": "Feature",
      "properties": {
        "name": "Bennura",
        "type": "village",
        "population": 5000,
        "elevation_m": 0,
        "source": "OpenStreetMap"
      },
      "geometry": {
        "type": "Point",
        "coordinates": [
          75.7682801,
          16.2501948
        ]
      }
    },
    {
      "type": "Feature",
      "properties": {
        "name": "Chikka Magi",
        "type": "village",
        "population": 5000,
        "elevation_m": 0,
        "source": "OpenStreetMap"
      },
      "geometry": {
        "type": "Point",
        "coordinates": [
          75.9355057,
          16.1200909
        ]
      }
    },
    {
      "type": "Feature",
      "properties": {
        "name": "Chikkagulabala",
        "type": "village",
        "population": 5000,
        "elevation_m": 0,
        "source": "OpenStreetMap"
      },
      "geometry": {
        "type": "Point",
        "coordinates": [
          75.8648744,
          16.320333
        ]
      }
    },
    {
      "type": "Feature",
      "properties": {
        "name": "Hadagoli",
        "type": "village",
        "population": 5000,
        "elevation_m": 0,
        "source": "OpenStreetMap"
      },
      "geometry": {
        "type": "Point",
        "coordinates": [
          75.9957192,
          16.1391003
        ]
      }
    },
    {
      "type": "Feature",
      "properties": {
        "name": "Hire Malagavi",
        "type": "village",
        "population": 5000,
        "elevation_m": 0,
        "source": "OpenStreetMap"
      },
      "geometry": {
        "type": "Point",
        "coordinates": [
          75.9752401,
          16.1393828
        ]
      }
    },
    {
      "type": "Feature",
      "properties": {
        "name": "Sitimani",
        "type": "village",
        "population": 5000,
        "elevation_m": 0,
        "source": "OpenStreetMap"
      },
      "geometry": {
        "type": "Point",
        "coordinates": [
          75.893783,
          16.3171946
        ]
      }
    },
    {
      "type": "Feature",
      "properties": {
        "name": "Timmapura",
        "type": "village",
        "population": 5000,
        "elevation_m": 0,
        "source": "OpenStreetMap"
      },
      "geometry": {
        "type": "Point",
        "coordinates": [
          75.8742334,
          16.2764387
        ]
      }
    },
    {
      "type": "Feature",
      "properties": {
        "name": "Budanagad",
        "type": "village",
        "population": 5000,
        "elevation_m": 0,
        "source": "OpenStreetMap"
      },
      "geometry": {
        "type": "Point",
        "coordinates": [
          75.8121448,
          16.0835457
        ]
      }
    },
    {
      "type": "Feature",
      "properties": {
        "name": "Belagalla",
        "type": "village",
        "population": 5000,
        "elevation_m": 0,
        "source": "OpenStreetMap"
      },
      "geometry": {
        "type": "Point",
        "coordinates": [
          76.0188156,
          16.1620487
        ]
      }
    },
    {
      "type": "Feature",
      "properties": {
        "name": "Unknown",
        "type": "village",
        "population": 5000,
        "elevation_m": 0,
        "source": "OpenStreetMap"
      },
      "geometry": {
        "type": "Point",
        "coordinates": [
          75.8965267,
          16.171286
        ]
      }
    },
    {
      "type": "Feature",
      "properties": {
        "name": "Manahalli",
        "type": "village",
        "population": 5000,
        "elevation_m": 0,
        "source": "OpenStreetMap"
      },
      "geometry": {
        "type": "Point",
        "coordinates": [
          75.9046579,
          16.311975
        ]
      }
    },
    {
      "type": "Feature",
      "properties": {
        "name": "Badaradinni",
        "type": "village",
        "population": 5000,
        "elevation_m": 0,
        "source": "OpenStreetMap"
      },
      "geometry": {
        "type": "Point",
        "coordinates": [
          75.7088291,
          16.3087327
        ]
      }
    },
    {
      "type": "Feature",
      "properties": {
        "name": "Basaveshwara High School",
        "type": "school",
        "population": 0,
        "elevation_m": 0,
        "source": "OpenStreetMap"
      },
      "geometry": {
        "type": "Point",
        "coordinates": [
          75.6299031,
          16.2573395
        ]
      }
    },
    {
      "type": "Feature",
      "properties": {
        "name": "Mannikeri",
        "type": "village",
        "population": 5000,
        "elevation_m": 0,
        "source": "OpenStreetMap"
      },
      "geometry": {
        "type": "Point",
        "coordinates": [
          75.6693334,
          16.3241757
        ]
      }
    },
    {
      "type": "Feature",
      "properties": {
        "name": "Dhavaleshwara",
        "type": "village",
        "population": 5000,
        "elevation_m": 0,
        "source": "OpenStreetMap"
      },
      "geometry": {
        "type": "Point",
        "coordinates": [
          75.6148888,
          16.3659258
        ]
      }
    },
    {
      "type": "Feature",
      "properties": {
        "name": "Honnihala",
        "type": "village",
        "population": 5000,
        "elevation_m": 0,
        "source": "OpenStreetMap"
      },
      "geometry": {
        "type": "Point",
        "coordinates": [
          75.7049993,
          16.3349669
        ]
      }
    },
    {
      "type": "Feature",
      "properties": {
        "name": "Haladura",
        "type": "village",
        "population": 5000,
        "elevation_m": 0,
        "source": "OpenStreetMap"
      },
      "geometry": {
        "type": "Point",
        "coordinates": [
          75.8464633,
          16.0646465
        ]
      }
    },
    {
      "type": "Feature",
      "properties": {
        "name": "Shigekeri",
        "type": "village",
        "population": 5000,
        "elevation_m": 0,
        "source": "OpenStreetMap"
      },
      "geometry": {
        "type": "Point",
        "coordinates": [
          75.6996409,
          16.1502355
        ]
      }
    },
    {
      "type": "Feature",
      "properties": {
        "name": "Kadampura",
        "type": "hamlet",
        "population": 500,
        "elevation_m": 0,
        "source": "OpenStreetMap"
      },
      "geometry": {
        "type": "Point",
        "coordinates": [
          75.6949802,
          16.2109921
        ]
      }
    },
    {
      "type": "Feature",
      "properties": {
        "name": "Muranala",
        "type": "village",
        "population": 5000,
        "elevation_m": 0,
        "source": "OpenStreetMap"
      },
      "geometry": {
        "type": "Point",
        "coordinates": [
          75.6523111,
          16.2051641
        ]
      }
    },
    {
      "type": "Feature",
      "properties": {
        "name": "Chirchinakal",
        "type": "village",
        "population": 5000,
        "elevation_m": 0,
        "source": "OpenStreetMap"
      },
      "geometry": {
        "type": "Point",
        "coordinates": [
          76.0571946,
          16.324554
        ]
      }
    },
    {
      "type": "Feature",
      "properties": {
        "name": "Geddalamari",
        "type": "village",
        "population": 5000,
        "elevation_m": 0,
        "source": "OpenStreetMap"
      },
      "geometry": {
        "type": "Point",
        "coordinates": [
          76.0831722,
          16.3379888
        ]
      }
    },
    {
      "type": "Feature",
      "properties": {
        "name": "Harindrala",
        "type": "village",
        "population": 5000,
        "elevation_m": 0,
        "source": "OpenStreetMap"
      },
      "geometry": {
        "type": "Point",
        "coordinates": [
          76.0848695,
          16.3290971
        ]
      }
    },
    {
      "type": "Feature",
      "properties": {
        "name": "Masuti",
        "type": "village",
        "population": 5000,
        "elevation_m": 0,
        "source": "OpenStreetMap"
      },
      "geometry": {
        "type": "Point",
        "coordinates": [
          75.9724395,
          16.3116578
        ]
      }
    },
    {
      "type": "Feature",
      "properties": {
        "name": "Uppaladinni",
        "type": "village",
        "population": 5000,
        "elevation_m": 0,
        "source": "OpenStreetMap"
      },
      "geometry": {
        "type": "Point",
        "coordinates": [
          75.9502799,
          16.5041352
        ]
      }
    },
    {
      "type": "Feature",
      "properties": {
        "name": "Huvinahalli",
        "type": "village",
        "population": 5000,
        "elevation_m": 0,
        "source": "OpenStreetMap"
      },
      "geometry": {
        "type": "Point",
        "coordinates": [
          75.8613111,
          16.0715821
        ]
      }
    },
    {
      "type": "Feature",
      "properties": {
        "name": "Iddalagi",
        "type": "village",
        "population": 5000,
        "elevation_m": 0,
        "source": "OpenStreetMap"
      },
      "geometry": {
        "type": "Point",
        "coordinates": [
          76.0512437,
          16.1753548
        ]
      }
    },
    {
      "type": "Feature",
      "properties": {
        "name": "Ramathala",
        "type": "village",
        "population": 5000,
        "elevation_m": 0,
        "source": "OpenStreetMap"
      },
      "geometry": {
        "type": "Point",
        "coordinates": [
          75.8717533,
          16.0906654
        ]
      }
    },
    {
      "type": "Feature",
      "properties": {
        "name": "Amaragola",
        "type": "village",
        "population": 5000,
        "elevation_m": 0,
        "source": "OpenStreetMap"
      },
      "geometry": {
        "type": "Point",
        "coordinates": [
          76.1164537,
          16.2005826
        ]
      }
    },
    {
      "type": "Feature",
      "properties": {
        "name": "Banoshi",
        "type": "hamlet",
        "population": 500,
        "elevation_m": 0,
        "source": "OpenStreetMap"
      },
      "geometry": {
        "type": "Point",
        "coordinates": [
          76.0899041,
          16.2768915
        ]
      }
    },
    {
      "type": "Feature",
      "properties": {
        "name": "Gangura",
        "type": "hamlet",
        "population": 500,
        "elevation_m": 0,
        "source": "OpenStreetMap"
      },
      "geometry": {
        "type": "Point",
        "coordinates": [
          76.0764656,
          16.2441884
        ]
      }
    },
    {
      "type": "Feature",
      "properties": {
        "name": "Gundakarjagi",
        "type": "village",
        "population": 5000,
        "elevation_m": 0,
        "source": "OpenStreetMap"
      },
      "geometry": {
        "type": "Point",
        "coordinates": [
          76.0379643,
          16.4121626
        ]
      }
    },
    {
      "type": "Feature",
      "properties": {
        "name": "Kamaladinni",
        "type": "hamlet",
        "population": 500,
        "elevation_m": 0,
        "source": "OpenStreetMap"
      },
      "geometry": {
        "type": "Point",
        "coordinates": [
          76.0706506,
          16.2384071
        ]
      }
    },
    {
      "type": "Feature",
      "properties": {
        "name": "Kashinakunti",
        "type": "village",
        "population": 5000,
        "elevation_m": 0,
        "source": "OpenStreetMap"
      },
      "geometry": {
        "type": "Point",
        "coordinates": [
          75.9440557,
          16.3266709
        ]
      }
    },
    {
      "type": "Feature",
      "properties": {
        "name": "Koppa",
        "type": "hamlet",
        "population": 500,
        "elevation_m": 0,
        "source": "OpenStreetMap"
      },
      "geometry": {
        "type": "Point",
        "coordinates": [
          76.0141887,
          16.3806955
        ]
      }
    },
    {
      "type": "Feature",
      "properties": {
        "name": "Kunchaganura",
        "type": "village",
        "population": 5000,
        "elevation_m": 0,
        "source": "OpenStreetMap"
      },
      "geometry": {
        "type": "Point",
        "coordinates": [
          76.0651813,
          16.2281325
        ]
      }
    },
    {
      "type": "Feature",
      "properties": {
        "name": "Mudura",
        "type": "village",
        "population": 5000,
        "elevation_m": 0,
        "source": "OpenStreetMap"
      },
      "geometry": {
        "type": "Point",
        "coordinates": [
          76.0268041,
          16.3048291
        ]
      }
    },
    {
      "type": "Feature",
      "properties": {
        "name": "Shirola",
        "type": "village",
        "population": 5000,
        "elevation_m": 0,
        "source": "OpenStreetMap"
      },
      "geometry": {
        "type": "Point",
        "coordinates": [
          76.1374898,
          16.3235526
        ]
      }
    },
    {
      "type": "Feature",
      "properties": {
        "name": "Angadageri",
        "type": "village",
        "population": 5000,
        "elevation_m": 0,
        "source": "OpenStreetMap"
      },
      "geometry": {
        "type": "Point",
        "coordinates": [
          75.8555391,
          16.4566441
        ]
      }
    },
    {
      "type": "Feature",
      "properties": {
        "name": "Benala",
        "type": "village",
        "population": 5000,
        "elevation_m": 0,
        "source": "OpenStreetMap"
      },
      "geometry": {
        "type": "Point",
        "coordinates": [
          75.8825648,
          16.3868191
        ]
      }
    },
    {
      "type": "Feature",
      "properties": {
        "name": "Budni",
        "type": "village",
        "population": 5000,
        "elevation_m": 0,
        "source": "OpenStreetMap"
      },
      "geometry": {
        "type": "Point",
        "coordinates": [
          75.8783451,
          16.4769395
        ]
      }
    },
    {
      "type": "Feature",
      "properties": {
        "name": "Hosakolhara",
        "type": "village",
        "population": 5000,
        "elevation_m": 0,
        "source": "OpenStreetMap"
      },
      "geometry": {
        "type": "Point",
        "coordinates": [
          75.6959182,
          16.4447747
        ]
      }
    },
    {
      "type": "Feature",
      "properties": {
        "name": "Kurabaradinni",
        "type": "village",
        "population": 5000,
        "elevation_m": 0,
        "source": "OpenStreetMap"
      },
      "geometry": {
        "type": "Point",
        "coordinates": [
          75.7632905,
          16.4827022
        ]
      }
    },
    {
      "type": "Feature",
      "properties": {
        "name": "Majarekoppa",
        "type": "village",
        "population": 5000,
        "elevation_m": 0,
        "source": "OpenStreetMap"
      },
      "geometry": {
        "type": "Point",
        "coordinates": [
          75.831544,
          16.3893401
        ]
      }
    },
    {
      "type": "Feature",
      "properties": {
        "name": "Nagaradinni",
        "type": "village",
        "population": 5000,
        "elevation_m": 0,
        "source": "OpenStreetMap"
      },
      "geometry": {
        "type": "Point",
        "coordinates": [
          75.7492161,
          16.4717898
        ]
      }
    },
    {
      "type": "Feature",
      "properties": {
        "name": "Chiraladinni",
        "type": "village",
        "population": 5000,
        "elevation_m": 0,
        "source": "OpenStreetMap"
      },
      "geometry": {
        "type": "Point",
        "coordinates": [
          75.7995443,
          16.4682882
        ]
      }
    },
    {
      "type": "Feature",
      "properties": {
        "name": "Devalapura",
        "type": "village",
        "population": 5000,
        "elevation_m": 0,
        "source": "OpenStreetMap"
      },
      "geometry": {
        "type": "Point",
        "coordinates": [
          75.9283963,
          16.3569368
        ]
      }
    },
    {
      "type": "Feature",
      "properties": {
        "name": "Hanchinala",
        "type": "village",
        "population": 5000,
        "elevation_m": 0,
        "source": "OpenStreetMap"
      },
      "geometry": {
        "type": "Point",
        "coordinates": [
          76.007372,
          16.5224867
        ]
      }
    },
    {
      "type": "Feature",
      "properties": {
        "name": "Ivanagi",
        "type": "village",
        "population": 5000,
        "elevation_m": 0,
        "source": "OpenStreetMap"
      },
      "geometry": {
        "type": "Point",
        "coordinates": [
          75.9928215,
          16.5401004
        ]
      }
    },
    {
      "type": "Feature",
      "properties": {
        "name": "Manura",
        "type": "village",
        "population": 5000,
        "elevation_m": 0,
        "source": "OpenStreetMap"
      },
      "geometry": {
        "type": "Point",
        "coordinates": [
          75.933566,
          16.5089138
        ]
      }
    },
    {
      "type": "Feature",
      "properties": {
        "name": "Nagavada",
        "type": "village",
        "population": 5000,
        "elevation_m": 0,
        "source": "OpenStreetMap"
      },
      "geometry": {
        "type": "Point",
        "coordinates": [
          75.9039991,
          16.517868
        ]
      }
    },
    {
      "type": "Feature",
      "properties": {
        "name": "Siddanatha",
        "type": "village",
        "population": 5000,
        "elevation_m": 0,
        "source": "OpenStreetMap"
      },
      "geometry": {
        "type": "Point",
        "coordinates": [
          75.7842458,
          16.434713
        ]
      }
    },
    {
      "type": "Feature",
      "properties": {
        "name": "Solavadagi",
        "type": "village",
        "population": 5000,
        "elevation_m": 0,
        "source": "OpenStreetMap"
      },
      "geometry": {
        "type": "Point",
        "coordinates": [
          76.0929569,
          16.5106102
        ]
      }
    },
    {
      "type": "Feature",
      "properties": {
        "name": "Sulakhoda",
        "type": "village",
        "population": 5000,
        "elevation_m": 0,
        "source": "OpenStreetMap"
      },
      "geometry": {
        "type": "Point",
        "coordinates": [
          75.7991842,
          16.4255548
        ]
      }
    },
    {
      "type": "Feature",
      "properties": {
        "name": "Tadalagi",
        "type": "village",
        "population": 5000,
        "elevation_m": 0,
        "source": "OpenStreetMap"
      },
      "geometry": {
        "type": "Point",
        "coordinates": [
          75.7939123,
          16.4498013
        ]
      }
    },
    {
      "type": "Feature",
      "properties": {
        "name": "Adihala",
        "type": "village",
        "population": 5000,
        "elevation_m": 0,
        "source": "OpenStreetMap"
      },
      "geometry": {
        "type": "Point",
        "coordinates": [
          76.0700737,
          16.1974886
        ]
      }
    },
    {
      "type": "Feature",
      "properties": {
        "name": "Chikkamalagamvi",
        "type": "village",
        "population": 5000,
        "elevation_m": 0,
        "source": "OpenStreetMap"
      },
      "geometry": {
        "type": "Point",
        "coordinates": [
          75.9885344,
          16.1609018
        ]
      }
    },
    {
      "type": "Feature",
      "properties": {
        "name": "Hullalli",
        "type": "village",
        "population": 5000,
        "elevation_m": 0,
        "source": "OpenStreetMap"
      },
      "geometry": {
        "type": "Point",
        "coordinates": [
          76.1106979,
          16.1779465
        ]
      }
    },
    {
      "type": "Feature",
      "properties": {
        "name": "Khajagalla",
        "type": "village",
        "population": 5000,
        "elevation_m": 0,
        "source": "OpenStreetMap"
      },
      "geometry": {
        "type": "Point",
        "coordinates": [
          76.0287965,
          16.1893519
        ]
      }
    },
    {
      "type": "Feature",
      "properties": {
        "name": "Kirasura",
        "type": "hamlet",
        "population": 500,
        "elevation_m": 0,
        "source": "OpenStreetMap"
      },
      "geometry": {
        "type": "Point",
        "coordinates": [
          75.9979467,
          16.1264322
        ]
      }
    },
    {
      "type": "Feature",
      "properties": {
        "name": "Medinapura",
        "type": "village",
        "population": 5000,
        "elevation_m": 0,
        "source": "OpenStreetMap"
      },
      "geometry": {
        "type": "Point",
        "coordinates": [
          76.0007251,
          16.1536614
        ]
      }
    },
    {
      "type": "Feature",
      "properties": {
        "name": "Valakaladinni",
        "type": "hamlet",
        "population": 500,
        "elevation_m": 0,
        "source": "OpenStreetMap"
      },
      "geometry": {
        "type": "Point",
        "coordinates": [
          76.0434965,
          16.2236067
        ]
      }
    },
    {
      "type": "Feature",
      "properties": {
        "name": "Varagodadinni",
        "type": "village",
        "population": 5000,
        "elevation_m": 0,
        "source": "OpenStreetMap"
      },
      "geometry": {
        "type": "Point",
        "coordinates": [
          76.0205622,
          16.1862581
        ]
      }
    },
    {
      "type": "Feature",
      "properties": {
        "name": "Bidnal",
        "type": "village",
        "population": 5000,
        "elevation_m": 0,
        "source": "OpenStreetMap"
      },
      "geometry": {
        "type": "Point",
        "coordinates": [
          75.9862923,
          16.432272
        ]
      }
    },
    {
      "type": "Feature",
      "properties": {
        "name": "Rajanal",
        "type": "village",
        "population": 5000,
        "elevation_m": 0,
        "source": "OpenStreetMap"
      },
      "geometry": {
        "type": "Point",
        "coordinates": [
          75.9993018,
          16.4261413
        ]
      }
    },
    {
      "type": "Feature",
      "properties": {
        "name": "Alamatti",
        "type": "village",
        "population": 5000,
        "elevation_m": 0,
        "source": "OpenStreetMap"
      },
      "geometry": {
        "type": "Point",
        "coordinates": [
          75.8923516,
          16.3451718
        ]
      }
    },
    {
      "type": "Feature",
      "properties": {
        "name": "Chelumi",
        "type": "hamlet",
        "population": 500,
        "elevation_m": 0,
        "source": "OpenStreetMap"
      },
      "geometry": {
        "type": "Point",
        "coordinates": [
          76.0399991,
          16.3299653
        ]
      }
    },
    {
      "type": "Feature",
      "properties": {
        "name": "Kandaganura",
        "type": "village",
        "population": 5000,
        "elevation_m": 0,
        "source": "OpenStreetMap"
      },
      "geometry": {
        "type": "Point",
        "coordinates": [
          76.0402828,
          16.292892
        ]
      }
    },
    {
      "type": "Feature",
      "properties": {
        "name": "Kolhara",
        "type": "village",
        "population": 5000,
        "elevation_m": 0,
        "source": "OpenStreetMap"
      },
      "geometry": {
        "type": "Point",
        "coordinates": [
          75.6824633,
          16.4348885
        ]
      }
    },
    {
      "type": "Feature",
      "properties": {
        "name": "Marada",
        "type": "village",
        "population": 5000,
        "elevation_m": 0,
        "source": "OpenStreetMap"
      },
      "geometry": {
        "type": "Point",
        "coordinates": [
          75.8270776,
          16.4049737
        ]
      }
    },
    {
      "type": "Feature",
      "properties": {
        "name": "Mukartihala",
        "type": "village",
        "population": 5000,
        "elevation_m": 0,
        "source": "OpenStreetMap"
      },
      "geometry": {
        "type": "Point",
        "coordinates": [
          75.90876,
          16.4678208
        ]
      }
    },
    {
      "type": "Feature",
      "properties": {
        "name": "Nagarala",
        "type": "village",
        "population": 5000,
        "elevation_m": 0,
        "source": "OpenStreetMap"
      },
      "geometry": {
        "type": "Point",
        "coordinates": [
          76.0670601,
          16.2716208
        ]
      }
    },
    {
      "type": "Feature",
      "properties": {
        "name": "Huvanura",
        "type": "village",
        "population": 5000,
        "elevation_m": 0,
        "source": "OpenStreetMap"
      },
      "geometry": {
        "type": "Point",
        "coordinates": [
          76.0098948,
          16.1721755
        ]
      }
    },
    {
      "type": "Feature",
      "properties": {
        "name": "Jainapur",
        "type": "village",
        "population": 5000,
        "elevation_m": 0,
        "source": "OpenStreetMap"
      },
      "geometry": {
        "type": "Point",
        "coordinates": [
          75.9338434,
          16.5388222
        ]
      }
    },
    {
      "type": "Feature",
      "properties": {
        "name": "Salagundi",
        "type": "village",
        "population": 5000,
        "elevation_m": 0,
        "source": "OpenStreetMap"
      },
      "geometry": {
        "type": "Point",
        "coordinates": [
          75.7052181,
          16.1901027
        ]
      }
    },
    {
      "type": "Feature",
      "properties": {
        "name": "Hosur",
        "type": "village",
        "population": 5000,
        "elevation_m": 0,
        "source": "OpenStreetMap"
      },
      "geometry": {
        "type": "Point",
        "coordinates": [
          75.9164329,
          16.3113039
        ]
      }
    },
    {
      "type": "Feature",
      "properties": {
        "name": "Nagasampagi",
        "type": "village",
        "population": 5000,
        "elevation_m": 0,
        "source": "OpenStreetMap"
      },
      "geometry": {
        "type": "Point",
        "coordinates": [
          75.9366118,
          16.3014172
        ]
      }
    },
    {
      "type": "Feature",
      "properties": {
        "name": "Chitaginakoppa",
        "type": "village",
        "population": 5000,
        "elevation_m": 0,
        "source": "OpenStreetMap"
      },
      "geometry": {
        "type": "Point",
        "coordinates": [
          75.9568976,
          16.2642008
        ]
      }
    },
    {
      "type": "Feature",
      "properties": {
        "name": "Devalapura",
        "type": "village",
        "population": 5000,
        "elevation_m": 0,
        "source": "OpenStreetMap"
      },
      "geometry": {
        "type": "Point",
        "coordinates": [
          75.9607074,
          16.2482086
        ]
      }
    },
    {
      "type": "Feature",
      "properties": {
        "name": "Madapur",
        "type": "village",
        "population": 5000,
        "elevation_m": 0,
        "source": "OpenStreetMap"
      },
      "geometry": {
        "type": "Point",
        "coordinates": [
          75.9479244,
          16.0978944
        ]
      }
    },
    {
      "type": "Feature",
      "properties": {
        "name": "Inam Budihal",
        "type": "village",
        "population": 5000,
        "elevation_m": 0,
        "source": "OpenStreetMap"
      },
      "geometry": {
        "type": "Point",
        "coordinates": [
          75.9182771,
          16.1224553
        ]
      }
    },
    {
      "type": "Feature",
      "properties": {
        "name": "Handaragalla",
        "type": "village",
        "population": 5000,
        "elevation_m": 0,
        "source": "OpenStreetMap"
      },
      "geometry": {
        "type": "Point",
        "coordinates": [
          76.040014,
          16.2686191
        ]
      }
    },
    {
      "type": "Feature",
      "properties": {
        "name": "Bommanagi",
        "type": "hamlet",
        "population": 500,
        "elevation_m": 0,
        "source": "OpenStreetMap"
      },
      "geometry": {
        "type": "Point",
        "coordinates": [
          76.0139939,
          16.2948882
        ]
      }
    },
    {
      "type": "Feature",
      "properties": {
        "name": "Domanala",
        "type": "village",
        "population": 5000,
        "elevation_m": 0,
        "source": "OpenStreetMap"
      },
      "geometry": {
        "type": "Point",
        "coordinates": [
          75.9999418,
          16.2896593
        ]
      }
    },
    {
      "type": "Feature",
      "properties": {
        "name": "Honnakatti",
        "type": "village",
        "population": 5000,
        "elevation_m": 0,
        "source": "OpenStreetMap"
      },
      "geometry": {
        "type": "Point",
        "coordinates": [
          75.7461834,
          16.1692579
        ]
      }
    },
    {
      "type": "Feature",
      "properties": {
        "name": "Mudavinakopa",
        "type": "village",
        "population": 5000,
        "elevation_m": 0,
        "source": "OpenStreetMap"
      },
      "geometry": {
        "type": "Point",
        "coordinates": [
          75.949012,
          16.279379
        ]
      }
    },
    {
      "type": "Feature",
      "properties": {
        "name": "Dhanush Hospital, Bagalkot",
        "type": "hospital",
        "population": 0,
        "elevation_m": 0,
        "source": "OpenStreetMap"
      },
      "geometry": {
        "type": "Point",
        "coordinates": [
          75.6980968,
          16.182572
        ]
      }
    },
    {
      "type": "Feature",
      "properties": {
        "name": "Shanthi Hospital, Bagalkot",
        "type": "hospital",
        "population": 0,
        "elevation_m": 0,
        "source": "OpenStreetMap"
      },
      "geometry": {
        "type": "Point",
        "coordinates": [
          75.6950659,
          16.1860229
        ]
      }
    },
    {
      "type": "Feature",
      "properties": {
        "name": "Baragi Hospital",
        "type": "hospital",
        "population": 0,
        "elevation_m": 0,
        "source": "OpenStreetMap"
      },
      "geometry": {
        "type": "Point",
        "coordinates": [
          75.6983502,
          16.1833776
        ]
      }
    },
    {
      "type": "Feature",
      "properties": {
        "name": "Nagathan Maternity and Surgical Hospital",
        "type": "hospital",
        "population": 0,
        "elevation_m": 0,
        "source": "OpenStreetMap"
      },
      "geometry": {
        "type": "Point",
        "coordinates": [
          75.6923716,
          16.176543
        ]
      }
    },
    {
      "type": "Feature",
      "properties": {
        "name": "Utkarsh Hospital, Vijayapura",
        "type": "hospital",
        "population": 0,
        "elevation_m": 0,
        "source": "OpenStreetMap"
      },
      "geometry": {
        "type": "Point",
        "coordinates": [
          76.1294322,
          16.3370546
        ]
      }
    },
    {
      "type": "Feature",
      "properties": {
        "name": "Shri Tulasigirish Diabetes Hospital",
        "type": "hospital",
        "population": 0,
        "elevation_m": 0,
        "source": "OpenStreetMap"
      },
      "geometry": {
        "type": "Point",
        "coordinates": [
          75.6979237,
          16.1822037
        ]
      }
    },
    {
      "type": "Feature",
      "properties": {
        "name": "Daddenevar Hospital And Research Centre",
        "type": "hospital",
        "population": 0,
        "elevation_m": 0,
        "source": "OpenStreetMap"
      },
      "geometry": {
        "type": "Point",
        "coordinates": [
          75.6910466,
          16.1788253
        ]
      }
    },
    {
      "type": "Feature",
      "properties": {
        "name": "H S K Hospital",
        "type": "hospital",
        "population": 0,
        "elevation_m": 0,
        "source": "OpenStreetMap"
      },
      "geometry": {
        "type": "Point",
        "coordinates": [
          75.6744236,
          16.1636419
        ]
      }
    },
    {
      "type": "Feature",
      "properties": {
        "name": "Dandin Hospital",
        "type": "hospital",
        "population": 0,
        "elevation_m": 0,
        "source": "OpenStreetMap"
      },
      "geometry": {
        "type": "Point",
        "coordinates": [
          75.6962071,
          16.1839347
        ]
      }
    },
    {
      "type": "Feature",
      "properties": {
        "name": "Patil Medi-Care Multispeciality Hospital",
        "type": "hospital",
        "population": 0,
        "elevation_m": 0,
        "source": "OpenStreetMap"
      },
      "geometry": {
        "type": "Point",
        "coordinates": [
          75.6973216,
          16.184276
        ]
      }
    },
    {
      "type": "Feature",
      "properties": {
        "name": "Vittal Eye and Skin Hospital",
        "type": "hospital",
        "population": 0,
        "elevation_m": 0,
        "source": "OpenStreetMap"
      },
      "geometry": {
        "type": "Point",
        "coordinates": [
          75.6966246,
          16.1826592
        ]
      }
    },
    {
      "type": "Feature",
      "properties": {
        "name": "Taluka Hospital Bilagi",
        "type": "hospital",
        "population": 0,
        "elevation_m": 0,
        "source": "OpenStreetMap"
      },
      "geometry": {
        "type": "Point",
        "coordinates": [
          75.6104693,
          16.3504502
        ]
      }
    },
    {
      "type": "Feature",
      "properties": {
        "name": "Government Hospital, Girisagar",
        "type": "hospital",
        "population": 0,
        "elevation_m": 0,
        "source": "OpenStreetMap"
      },
      "geometry": {
        "type": "Point",
        "coordinates": [
          75.7045791,
          16.3537264
        ]
      }
    },
    {
      "type": "Feature",
      "properties": {
        "name": "Government Hospital, Muddebihal",
        "type": "hospital",
        "population": 0,
        "elevation_m": 0,
        "source": "OpenStreetMap"
      },
      "geometry": {
        "type": "Point",
        "coordinates": [
          76.1283489,
          16.3284481
        ]
      }
    },
    {
      "type": "Feature",
      "properties": {
        "name": "Taluka Hospital Basavanbagewadi",
        "type": "hospital",
        "population": 0,
        "elevation_m": 0,
        "source": "OpenStreetMap"
      },
      "geometry": {
        "type": "Point",
        "coordinates": [
          75.9741793,
          16.5701816
        ]
      }
    },
    {
      "type": "Feature",
      "properties": {
        "name": "Government Hospital, Alur RC Rampur RC",
        "type": "hospital",
        "population": 0,
        "elevation_m": 0,
        "source": "OpenStreetMap"
      },
      "geometry": {
        "type": "Point",
        "coordinates": [
          75.8910915,
          16.3037017
        ]
      }
    },
    {
      "type": "Feature",
      "properties": {
        "name": "Government Hospital, Tangadagi",
        "type": "hospital",
        "population": 0,
        "elevation_m": 0,
        "source": "OpenStreetMap"
      },
      "geometry": {
        "type": "Point",
        "coordinates": [
          76.0945934,
          16.2176764
        ]
      }
    },
    {
      "type": "Feature",
      "properties": {
        "name": "Government Hospital, Dhannur",
        "type": "hospital",
        "population": 0,
        "elevation_m": 0,
        "source": "OpenStreetMap"
      },
      "geometry": {
        "type": "Point",
        "coordinates": [
          76.08666,
          16.178701
        ]
      }
    },
    {
      "type": "Feature",
      "properties": {
        "name": "Dr. Daddenavar Hospital",
        "type": "hospital",
        "population": 0,
        "elevation_m": 0,
        "source": "OpenStreetMap"
      },
      "geometry": {
        "type": "Point",
        "coordinates": [
          75.667693,
          16.15929
        ]
      }
    },
    {
      "type": "Feature",
      "properties": {
        "name": "Dr. K M Sudhakar Rao Hospital",
        "type": "hospital",
        "population": 0,
        "elevation_m": 0,
        "source": "OpenStreetMap"
      },
      "geometry": {
        "type": "Point",
        "coordinates": [
          75.6956443,
          16.1836368
        ]
      }
    },
    {
      "type": "Feature",
      "properties": {
        "name": "Boke Hospital",
        "type": "hospital",
        "population": 0,
        "elevation_m": 0,
        "source": "OpenStreetMap"
      },
      "geometry": {
        "type": "Point",
        "coordinates": [
          75.6671382,
          16.1610963
        ]
      }
    },
    {
      "type": "Feature",
      "properties": {
        "name": "Yogappannavar Hospital",
        "type": "hospital",
        "population": 0,
        "elevation_m": 0,
        "source": "OpenStreetMap"
      },
      "geometry": {
        "type": "Point",
        "coordinates": [
          75.6596198,
          16.1753875
        ]
      }
    },
    {
      "type": "Feature",
      "properties": {
        "name": "Shirur Memorial Hospital",
        "type": "hospital",
        "population": 0,
        "elevation_m": 0,
        "source": "OpenStreetMap"
      },
      "geometry": {
        "type": "Point",
        "coordinates": [
          75.669537,
          16.158549
        ]
      }
    },
    {
      "type": "Feature",
      "properties": {
        "name": "Dr. Halakatti Hospital",
        "type": "hospital",
        "population": 0,
        "elevation_m": 0,
        "source": "OpenStreetMap"
      },
      "geometry": {
        "type": "Point",
        "coordinates": [
          75.696982,
          16.183095
        ]
      }
    },
    {
      "type": "Feature",
      "properties": {
        "name": "Nangarani Hospital",
        "type": "hospital",
        "population": 0,
        "elevation_m": 0,
        "source": "OpenStreetMap"
      },
      "geometry": {
        "type": "Point",
        "coordinates": [
          75.701982,
          16.1906227
        ]
      }
    },
    {
      "type": "Feature",
      "properties": {
        "name": "New Shanti Hospital",
        "type": "hospital",
        "population": 0,
        "elevation_m": 0,
        "source": "OpenStreetMap"
      },
      "geometry": {
        "type": "Point",
        "coordinates": [
          75.6682007,
          16.1593374
        ]
      }
    },
    {
      "type": "Feature",
      "properties": {
        "name": "Spandana Multispeciality Hospital",
        "type": "hospital",
        "population": 0,
        "elevation_m": 0,
        "source": "OpenStreetMap"
      },
      "geometry": {
        "type": "Point",
        "coordinates": [
          75.6966973,
          16.1821179
        ]
      }
    },
    {
      "type": "Feature",
      "properties": {
        "name": "Drishti Super Speciality Eye Hospital",
        "type": "hospital",
        "population": 0,
        "elevation_m": 0,
        "source": "OpenStreetMap"
      },
      "geometry": {
        "type": "Point",
        "coordinates": [
          75.697466,
          16.181781
        ]
      }
    },
    {
      "type": "Feature",
      "properties": {
        "name": "Chandargi Eye Hospital",
        "type": "hospital",
        "population": 0,
        "elevation_m": 0,
        "source": "OpenStreetMap"
      },
      "geometry": {
        "type": "Point",
        "coordinates": [
          75.697962,
          16.183653
        ]
      }
    },
    {
      "type": "Feature",
      "properties": {
        "name": "Sanjeevini Newlajami Hospital",
        "type": "hospital",
        "population": 0,
        "elevation_m": 0,
        "source": "OpenStreetMap"
      },
      "geometry": {
        "type": "Point",
        "coordinates": [
          75.669748,
          16.161771
        ]
      }
    },
    {
      "type": "Feature",
      "properties": {
        "name": "Chincholi Hospital",
        "type": "hospital",
        "population": 0,
        "elevation_m": 0,
        "source": "OpenStreetMap"
      },
      "geometry": {
        "type": "Point",
        "coordinates": [
          75.6922527,
          16.1848202
        ]
      }
    },
    {
      "type": "Feature",
      "properties": {
        "name": "Malaji Hospital",
        "type": "hospital",
        "population": 0,
        "elevation_m": 0,
        "source": "OpenStreetMap"
      },
      "geometry": {
        "type": "Point",
        "coordinates": [
          75.6798599,
          16.1558076
        ]
      }
    },
    {
      "type": "Feature",
      "properties": {
        "name": "Dr. Subhas Patil Hospital",
        "type": "hospital",
        "population": 0,
        "elevation_m": 0,
        "source": "OpenStreetMap"
      },
      "geometry": {
        "type": "Point",
        "coordinates": [
          75.6972253,
          16.1839796
        ]
      }
    },
    {
      "type": "Feature",
      "properties": {
        "name": "Kulkarni Eye Hospital",
        "type": "hospital",
        "population": 0,
        "elevation_m": 0,
        "source": "OpenStreetMap"
      },
      "geometry": {
        "type": "Point",
        "coordinates": [
          75.698152,
          16.18448
        ]
      }
    },
    {
      "type": "Feature",
      "properties": {
        "name": "Halagali Hospital",
        "type": "hospital",
        "population": 0,
        "elevation_m": 0,
        "source": "OpenStreetMap"
      },
      "geometry": {
        "type": "Point",
        "coordinates": [
          75.6951842,
          16.1865756
        ]
      }
    },
    {
      "type": "Feature",
      "properties": {
        "name": "B.M. Hospital",
        "type": "hospital",
        "population": 0,
        "elevation_m": 0,
        "source": "OpenStreetMap"
      },
      "geometry": {
        "type": "Point",
        "coordinates": [
          75.698227,
          16.184705
        ]
      }
    },
    {
      "type": "Feature",
      "properties": {
        "name": "Ashraya Hospital",
        "type": "hospital",
        "population": 0,
        "elevation_m": 0,
        "source": "OpenStreetMap"
      },
      "geometry": {
        "type": "Point",
        "coordinates": [
          75.65917,
          16.1744042
        ]
      }
    },
    {
      "type": "Feature",
      "properties": {
        "name": "Dr. Kalburgi Hospital",
        "type": "hospital",
        "population": 0,
        "elevation_m": 0,
        "source": "OpenStreetMap"
      },
      "geometry": {
        "type": "Point",
        "coordinates": [
          75.697945,
          16.183776
        ]
      }
    },
    {
      "type": "Feature",
      "properties": {
        "name": "Shailaja Hospital",
        "type": "hospital",
        "population": 0,
        "elevation_m": 0,
        "source": "OpenStreetMap"
      },
      "geometry": {
        "type": "Point",
        "coordinates": [
          75.698131,
          16.184362
        ]
      }
    },
    {
      "type": "Feature",
      "properties": {
        "name": "Dr. Hooli Sri Dhanvantari Ayurveda Hospital",
        "type": "hospital",
        "population": 0,
        "elevation_m": 0,
        "source": "OpenStreetMap"
      },
      "geometry": {
        "type": "Point",
        "coordinates": [
          75.6598512,
          16.1830422
        ]
      }
    },
    {
      "type": "Feature",
      "properties": {
        "name": "Patted Hospital",
        "type": "hospital",
        "population": 0,
        "elevation_m": 0,
        "source": "OpenStreetMap"
      },
      "geometry": {
        "type": "Point",
        "coordinates": [
          75.6976651,
          16.184473
        ]
      }
    },
    {
      "type": "Feature",
      "properties": {
        "name": "Kerudi Multispeciality Hospital",
        "type": "hospital",
        "population": 0,
        "elevation_m": 0,
        "source": "OpenStreetMap"
      },
      "geometry": {
        "type": "Point",
        "coordinates": [
          75.696595,
          16.183184
        ]
      }
    },
    {
      "type": "Feature",
      "properties": {
        "name": "Mareguddi Hospital",
        "type": "hospital",
        "population": 0,
        "elevation_m": 0,
        "source": "OpenStreetMap"
      },
      "geometry": {
        "type": "Point",
        "coordinates": [
          75.6977062,
          16.1845818
        ]
      }
    },
    {
      "type": "Feature",
      "properties": {
        "name": "Mural Inamdar Hospital",
        "type": "hospital",
        "population": 0,
        "elevation_m": 0,
        "source": "OpenStreetMap"
      },
      "geometry": {
        "type": "Point",
        "coordinates": [
          75.6953576,
          16.1834245
        ]
      }
    },
    {
      "type": "Feature",
      "properties": {
        "name": "Badakali Hospital",
        "type": "hospital",
        "population": 0,
        "elevation_m": 0,
        "source": "OpenStreetMap"
      },
      "geometry": {
        "type": "Point",
        "coordinates": [
          75.664107,
          16.173279
        ]
      }
    },
    {
      "type": "Feature",
      "properties": {
        "name": "Dr Hattarki Hospital",
        "type": "hospital",
        "population": 0,
        "elevation_m": 0,
        "source": "OpenStreetMap"
      },
      "geometry": {
        "type": "Point",
        "coordinates": [
          75.9707329,
          16.5761322
        ]
      }
    },
    {
      "type": "Feature",
      "properties": {
        "name": "Government Hospital",
        "type": "hospital",
        "population": 0,
        "elevation_m": 0,
        "source": "OpenStreetMap"
      },
      "geometry": {
        "type": "Point",
        "coordinates": [
          75.9690421,
          16.5750597
        ]
      }
    },
    {
      "type": "Feature",
      "properties": {
        "name": "Government Hospital",
        "type": "hospital",
        "population": 0,
        "elevation_m": 0,
        "source": "OpenStreetMap"
      },
      "geometry": {
        "type": "Point",
        "coordinates": [
          75.9325869,
          16.3620444
        ]
      }
    },
    {
      "type": "Feature",
      "properties": {
        "name": "Shri Sai Krupa Hospital",
        "type": "hospital",
        "population": 0,
        "elevation_m": 0,
        "source": "OpenStreetMap"
      },
      "geometry": {
        "type": "Point",
        "coordinates": [
          76.1273804,
          16.3375267
        ]
      }
    },
    {
      "type": "Feature",
      "properties": {
        "name": "Government Ayurvedic Hospital",
        "type": "hospital",
        "population": 0,
        "elevation_m": 0,
        "source": "OpenStreetMap"
      },
      "geometry": {
        "type": "Point",
        "coordinates": [
          75.6689126,
          16.3247629
        ]
      }
    },
    {
      "type": "Feature",
      "properties": {
        "name": "Primary Health Centre",
        "type": "hospital",
        "population": 0,
        "elevation_m": 0,
        "source": "OpenStreetMap"
      },
      "geometry": {
        "type": "Point",
        "coordinates": [
          76.0111249,
          16.3135099
        ]
      }
    },
    {
      "type": "Feature",
      "properties": {
        "name": "Government Hospital",
        "type": "hospital",
        "population": 0,
        "elevation_m": 0,
        "source": "OpenStreetMap"
      },
      "geometry": {
        "type": "Point",
        "coordinates": [
          75.8894718,
          16.2058858
        ]
      }
    },
    {
      "type": "Feature",
      "properties": {
        "name": "Shami Ayurveda Panchakarma Chikitsalaya",
        "type": "hospital",
        "population": 0,
        "elevation_m": 0,
        "source": "OpenStreetMap"
      },
      "geometry": {
        "type": "Point",
        "coordinates": [
          75.6795875,
          16.1552201
        ]
      }
    },
    {
      "type": "Feature",
      "properties": {
        "name": "Sri Veerabadreshwar Opticals And Eye Care Centre Kamatagi",
        "type": "hospital",
        "population": 0,
        "elevation_m": 0,
        "source": "OpenStreetMap"
      },
      "geometry": {
        "type": "Point",
        "coordinates": [
          75.8654607,
          16.1006619
        ]
      }
    },
    {
      "type": "Feature",
      "properties": {
        "name": "Benala",
        "type": "village",
        "population": 5000,
        "elevation_m": 0,
        "source": "OpenStreetMap"
      },
      "geometry": {
        "type": "Point",
        "coordinates": [
          75.9118742,
          16.4052115
        ]
      }
    },
    {
      "type": "Feature",
      "properties": {
        "name": "Halihal",
        "type": "village",
        "population": 5000,
        "elevation_m": 0,
        "source": "OpenStreetMap"
      },
      "geometry": {
        "type": "Point",
        "coordinates": [
          75.9814882,
          16.4713215
        ]
      }
    }
  ]
}