{
  "type": "FeatureCollection",
  "features": [
    {
      "type": "Feature",
      "properties": {
        "timestep_min": 30,
        "depth_band": "0.1 - 0.5",
        "min_depth": 0.1,
        "max_depth": 0.5,
        "max_depth_m": 4.6,
        "avg_depth_m": 2.5,
        "inundated_area_km2": 0.93,
        "hazard_level": "Moderate",
        "zone": "downstream",
        "wave_front_km": 4.9
      },
      "geometry": {
        "type": "Polygon",
        "coordinates": [
          [
            [
              77.08357713921309,
              11.461762310898674
            ],
            [
              77.10279889755017,
              11.48817413565265
            ],
            [
              77.12466150244984,
              11.475805864347349
            ],
            [
              77.09031186078691,
              11.448994489101327
            ],
            [
              77.08357713921309,
              11.461762310898674
            ]
          ]
        ]
      }
    },
    {
      "type": "Feature",
      "properties": {
        "timestep_min": 30,
        "depth_band": "0.5 - 1.0",
        "min_depth": 0.5,
        "max_depth": 1.0,
        "max_depth_m": 4.6,
        "avg_depth_m": 2.5,
        "inundated_area_km2": 0.69,
        "hazard_level": "Moderate",
        "zone": "downstream",
        "wave_front_km": 4.9
      },
      "geometry": {
        "type": "Polygon",
        "coordinates": [
          [
            [
              77.08815346716477,
              11.46372422689818
            ],
            [
              77.1025697859176,
              11.483533095463663
            ],
            [
              77.11896673959234,
              11.474256891984686
            ],
            [
              77.09320450834514,
              11.454148360550171
            ],
            [
              77.08815346716477,
              11.46372422689818
            ]
          ]
        ]
      }
    },
    {
      "type": "Feature",
      "properties": {
        "timestep_min": 30,
        "depth_band": "1.0 - 2.0",
        "min_depth": 1.0,
        "max_depth": 2.0,
        "max_depth_m": 4.6,
        "avg_depth_m": 2.5,
        "inundated_area_km2": 0.51,
        "hazard_level": "High",
        "zone": "downstream",
        "wave_front_km": 4.9
      },
      "geometry": {
        "type": "Polygon",
        "coordinates": [
          [
            [
              77.09181452952615,
              11.465293759697783
            ],
            [
              77.10238649661153,
              11.479820263312472
            ],
            [
              77.11441092930636,
              11.473017714094555
            ],
            [
              77.09551862639174,
              11.458271457709245
            ],
            [
              77.09181452952615,
              11.465293759697783
            ]
          ]
        ]
      }
    },
    {
      "type": "Feature",
      "properties": {
        "timestep_min": 30,
        "depth_band": "2.0 - 3.0",
        "min_depth": 2.0,
        "max_depth": 3.0,
        "max_depth_m": 4.6,
        "avg_depth_m": 2.5,
        "inundated_area_km2": 0.35,
        "hazard_level": "High",
        "zone": "downstream",
        "wave_front_km": 4.9
      },
      "geometry": {
        "type": "Polygon",
        "coordinates": [
          [
            [
              77.09492643253328,
              11.466627862577448
            ],
            [
              77.10223070070138,
              11.47666435598396
            ],
            [
              77.11053849056326,
              11.471964412887946
            ],
            [
              77.09748562673134,
              11.461776090294457
            ],
            [
              77.09492643253328,
              11.466627862577448
            ]
          ]
        ]
      }
    },
    {
      "type": "Feature",
      "properties": {
        "timestep_min": 30,
        "depth_band": "3.0 - 5.0",
        "min_depth": 3.0,
        "max_depth": 5.0,
        "max_depth_m": 4.6,
        "avg_depth_m": 2.5,
        "inundated_area_km2": 0.2,
        "hazard_level": "Critical",
        "zone": "downstream",
        "wave_front_km": 4.9
      },
      "geometry": {
        "type": "Polygon",
        "coordinates": [
          [
            [
              77.09785528242237,
              11.467883488817131
            ],
            [
              77.10208406925653,
              11.473694090263006
            ],
            [
              77.10689384233446,
              11.47097307057584
            ],
            [
              77.09933692116861,
              11.465074568021715
            ],
            [
              77.09785528242237,
              11.467883488817131
            ]
          ]
        ]
      }
    },
    {
      "type": "Feature",
      "properties": {
        "timestep_min": 60,
        "depth_band": "0.1 - 0.5",
        "min_depth": 0.1,
        "max_depth": 0.5,
        "max_depth_m": 2.5,
        "avg_depth_m": 1.4,
        "inundated_area_km2": 0.63,
        "hazard_level": "Moderate",
        "zone": "downstream",
        "wave_front_km": 12.3
      },
      "geometry": {
        "type": "Polygon",
        "coordinates": [
          [
            [
              77.08357713921309,
              11.461762310898674
            ],
            [
              77.15998561015732,
              11.482909377653362
            ],
            [
              77.16923542577975,
              11.474567031285291
            ],
            [
              77.09031186078691,
              11.448994489101327
            ],
            [
              77.08357713921309,
              11.461762310898674
            ]
          ]
        ]
      }
    },
    {
      "type": "Feature",
      "properties": {
        "timestep_min": 60,
        "depth_band": "0.5 - 1.0",
        "min_depth": 0.5,
        "max_depth": 1.0,
        "max_depth_m": 2.5,
        "avg_depth_m": 1.4,
        "inundated_area_km2": 0.47,
        "hazard_level": "Moderate",
        "zone": "downstream",
        "wave_front_km": 12.3
      },
      "geometry": {
        "type": "Polygon",
        "coordinates": [
          [
            [
              77.09367936611933,
              11.462934994410137
            ],
            [
              77.15098571932751,
              11.478795294476154
            ],
            [
              77.15792308104433,
              11.472538534700101
            ],
            [
              77.0987304072997,
              11.453359128062129
            ],
            [
              77.09367936611933,
              11.462934994410137
            ]
          ]
        ]
      }
    },
    {
      "type": "Feature",
      "properties": {
        "timestep_min": 60,
        "depth_band": "1.0 - 2.0",
        "min_depth": 1.0,
        "max_depth": 2.0,
        "max_depth_m": 2.5,
        "avg_depth_m": 1.4,
        "inundated_area_km2": 0.34,
        "hazard_level": "High",
        "zone": "downstream",
        "wave_front_km": 12.3
      },
      "geometry": {
        "type": "Polygon",
        "coordinates": [
          [
            [
              77.10176114764434,
              11.46387314121931
            ],
            [
              77.14378580666366,
              11.475504027934388
            ],
            [
              77.148873205256,
              11.470915737431948
            ],
            [
              77.10546524450994,
              11.45685083923077
            ],
            [
              77.10176114764434,
              11.46387314121931
            ]
          ]
        ]
      }
    },
    {
      "type": "Feature",
      "properties": {
        "timestep_min": 60,
        "depth_band": "2.0 - 3.0",
        "min_depth": 2.0,
        "max_depth": 3.0,
        "max_depth_m": 2.5,
        "avg_depth_m": 1.4,
        "inundated_area_km2": 0.24,
        "hazard_level": "High",
        "zone": "downstream",
        "wave_front_km": 12.3
      },
      "geometry": {
        "type": "Polygon",
        "coordinates": [
          [
            [
              77.1086306619406,
              11.464670566007104
            ],
            [
              77.13766588089939,
              11.472706451373886
            ],
            [
              77.14118081083592,
              11.46953635975402
            ],
            [
              77.11118985613865,
              11.459818793724114
            ],
            [
              77.1086306619406,
              11.464670566007104
            ]
          ]
        ]
      }
    },
    {
      "type": "Feature",
      "properties": {
        "timestep_min": 90,
        "depth_band": "0.1 - 0.5",
        "min_depth": 0.1,
        "max_depth": 0.5,
        "max_depth_m": 8.5,
        "avg_depth_m": 4.7,
        "inundated_area_km2": 2.03,
        "hazard_level": "Moderate",
        "zone": "downstream",
        "wave_front_km": 20.8
      },
      "geometry": {
        "type": "Polygon",
        "coordinates": [
          [
            [
              77.08357713921309,
              11.461762310898674
            ],
            [
              77.1574382166956,
              11.4852068546476
            ],
            [
              77.2038488020762,
              11.501604468606695
            ],
            [
              77.24888273551701,
              11.50062400973938
            ],
            [
              77.1702411833044,
              11.473659945352399
            ],
            [
              77.09031186078691,
              11.448994489101327
            ],
            [
              77.08357713921309,
              11.461762310898674
            ]
          ]
        ]
      }
    },
    {
      "type": "Feature",
      "properties": {
        "timestep_min": 90,
        "depth_band": "0.5 - 1.0",
        "min_depth": 0.5,
        "max_depth": 1.0,
        "max_depth_m": 8.5,
        "avg_depth_m": 4.7,
        "inundated_area_km2": 1.52,
        "hazard_level": "Moderate",
        "zone": "downstream",
        "wave_front_km": 20.8
      },
      "geometry": {
        "type": "Polygon",
        "coordinates": [
          [
            [
              77.10235110555826,
              11.465813806867605
            ],
            [
              77.15774691367014,
              11.4833972146793
            ],
            [
              77.1925548527056,
              11.495695425148622
            ],
            [
              77.22633030278621,
              11.494960080998133
            ],
            [
              77.16734913862675,
              11.4747370327079
            ],
            [
              77.10740214673862,
              11.456237940519596
            ],
            [
              77.10235110555826,
              11.465813806867605
            ]
          ]
        ]
      }
    },
    {
      "type": "Feature",
      "properties": {
        "timestep_min": 90,
        "depth_band": "1.0 - 2.0",
        "min_depth": 1.0,
        "max_depth": 2.0,
        "max_depth_m": 8.5,
        "avg_depth_m": 4.7,
        "inundated_area_km2": 1.12,
        "hazard_level": "High",
        "zone": "downstream",
        "wave_front_km": 20.8
      },
      "geometry": {
        "type": "Polygon",
        "coordinates": [
          [
            [
              77.11737027863441,
              11.46905500364275
            ],
            [
              77.15799387124979,
              11.481949502704659
            ],
            [
              77.18351969320912,
              11.490968190382162
            ],
            [
              77.20828835660157,
              11.490428938005138
            ],
            [
              77.16503550288462,
              11.475598702592297
            ],
            [
              77.12107437550002,
              11.46203270165421
            ],
            [
              77.11737027863441,
              11.46905500364275
            ]
          ]
        ]
      }
    },
    {
      "type": "Feature",
      "properties": {
        "timestep_min": 90,
        "depth_band": "2.0 - 3.0",
        "min_depth": 2.0,
        "max_depth": 3.0,
        "max_depth_m": 8.5,
        "avg_depth_m": 4.7,
        "inundated_area_km2": 0.77,
        "hazard_level": "High",
        "zone": "downstream",
        "wave_front_km": 20.8
      },
      "geometry": {
        "type": "Polygon",
        "coordinates": [
          [
            [
              77.13013657574913,
              11.471810020901621
            ],
            [
              77.15820378519248,
              11.480718947526213
            ],
            [
              77.17583980763712,
              11.48695004083067
            ],
            [
              77.19295270234463,
              11.48657746646109
            ],
            [
              77.16306891250383,
              11.476331121994038
            ],
            [
              77.13269576994719,
              11.466958248618631
            ],
            [
              77.13013657574913,
              11.471810020901621
            ]
          ]
        ]
      }
    },
    {
      "type": "Feature",
      "properties": {
        "timestep_min": 90,
        "depth_band": "3.0 - 5.0",
        "min_depth": 3.0,
        "max_depth": 5.0,
        "max_depth_m": 8.5,
        "avg_depth_m": 4.7,
        "inundated_area_km2": 0.45,
        "hazard_level": "Critical",
        "zone": "downstream",
        "wave_front_km": 20.8
      },
      "geometry": {
        "type": "Polygon",
        "coordinates": [
          [
            [
              77.14215191421003,
              11.47440297832174
            ],
            [
              77.15840135125619,
              11.479560777946503
            ],
            [
              77.16861168003992,
              11.483168253017503
            ],
            [
              77.1785191453969,
              11.482952552066694
            ],
            [
              77.16121800391012,
              11.477020457901558
            ],
            [
              77.14363355295627,
              11.471594057526323
            ],
            [
              77.14215191421003,
              11.47440297832174
            ]
          ]
        ]
      }
    },
    {
      "type": "Feature",
      "properties": {
        "timestep_min": 90,
        "depth_band": "> 5.0",
        "min_depth": 5.0,
        "max_depth": 99.0,
        "max_depth_m": 8.5,
        "avg_depth_m": 4.7,
        "inundated_area_km2": 0.2,
        "hazard_level": "Critical",
        "zone": "downstream",
        "wave_front_km": 20.8
      },
      "geometry": {
        "type": "Polygon",
        "coordinates": [
          [
            [
              77.15116341805572,
              11.476347696386826
            ],
            [
              77.15854952580398,
              11.478692150761718
            ],
            [
              77.16319058434203,
              11.480331912157627
            ],
            [
              77.16769397768611,
              11.480233866270897
            ],
            [
              77.15982982246486,
              11.477537459832199
            ],
            [
              77.1518368902131,
              11.475070914207091
            ],
            [
              77.15116341805572,
              11.476347696386826
            ]
          ]
        ]
      }
    },
    {
      "type": "Feature",
      "properties": {
        "timestep_min": 120,
        "depth_band": "0.1 - 0.5",
        "min_depth": 0.1,
        "max_depth": 0.5,
        "max_depth_m": 9.9,
        "avg_depth_m": 5.5,
        "inundated_area_km2": 2.19,
        "hazard_level": "Moderate",
        "zone": "downstream",
        "wave_front_km": 30.1
      },
      "geometry": {
        "type": "Polygon",
        "coordinates": [
          [
            [
              77.08355976051847,
              11.461795257780512
            ],
            [
              77.15623216675128,
              11.486294582963845
            ],
            [
              77.2465490353027,
              11.505582992334782
            ],
            [
              77.26572720702623,
              11.46212782892269
            ],
            [
              77.25061651070122,
              11.442517232936698
            ],
            [
              77.24872496900446,
              11.451317437023219
            ],
            [
              77.24797238557417,
              11.493990130621746
            ],
            [
              77.17113672168753,
              11.472852265320391
            ],
            [
              77.09032923948153,
              11.44896154221949
            ],
            [
              77.08355976051847,
              11.461795257780512
            ]
          ]
        ]
      }
    },
    {
      "type": "Feature",
      "properties": {
        "timestep_min": 120,
        "depth_band": "0.5 - 1.0",
        "min_depth": 0.5,
        "max_depth": 1.0,
        "max_depth_m": 9.9,
        "avg_depth_m": 5.5,
        "inundated_area_km2": 1.64,
        "hazard_level": "Moderate",
        "zone": "downstream",
        "wave_front_km": 30.1
      },
      "geometry": {
        "type": "Polygon",
        "coordinates": [
          [
            [
              77.1076213834224,
              11.465504637033929
            ],
            [
              77.162125688097,
              11.483879130921428
            ],
            [
              77.22986333951059,
              11.49834543794963
            ],
            [
              77.24424696830323,
              11.465754065390561
            ],
            [
              77.23291394605947,
              11.451046118401068
            ],
            [
              77.23149528978689,
              11.457646271465958
            ],
            [
              77.23093085221419,
              11.489650791664854
            ],
            [
              77.1733041042992,
              11.473797392688837
            ],
            [
              77.1126984926447,
              11.45587935036316
            ],
            [
              77.1076213834224,
              11.465504637033929
            ]
          ]
        ]
      }
    },
    {
      "type": "Feature",
      "properties": {
        "timestep_min": 120,
        "depth_band": "1.0 - 2.0",
        "min_depth": 1.0,
        "max_depth": 2.0,
        "max_depth_m": 9.9,
        "avg_depth_m": 5.5,
        "inundated_area_km2": 1.21,
        "hazard_level": "High",
        "zone": "downstream",
        "wave_front_km": 30.1
      },
      "geometry": {
        "type": "Polygon",
        "coordinates": [
          [
            [
              77.12687068174554,
              11.46847214043666
            ],
            [
              77.16684050517358,
              11.481946769287493
            ],
            [
              77.21651478287687,
              11.492555394441508
            ],
            [
              77.22706277732482,
              11.468655054564858
            ],
            [
              77.21875189434606,
              11.457869226772562
            ],
            [
              77.21771154641283,
              11.462709339020147
            ],
            [
              77.21729762552619,
              11.486179320499339
            ],
            [
              77.17503801038853,
              11.474553494583592
            ],
            [
              77.13059389517522,
              11.461413596878097
            ],
            [
              77.12687068174554,
              11.46847214043666
            ]
          ]
        ]
      }
    },
    {
      "type": "Feature",
      "properties": {
        "timestep_min": 120,
        "depth_band": "2.0 - 3.0",
        "min_depth": 2.0,
        "max_depth": 3.0,
        "max_depth_m": 9.9,
        "avg_depth_m": 5.5,
        "inundated_area_km2": 0.83,
        "hazard_level": "High",
        "zone": "downstream",
        "wave_front_km": 30.1
      },
      "geometry": {
        "type": "Polygon",
        "coordinates": [
          [
            [
              77.14323258532022,
              11.470994518328983
            ],
            [
              77.17084809968868,
              11.480304261898649
            ],
            [
              77.20516850973823,
              11.487633857459606
            ],
            [
              77.21245621499317,
              11.471120895363011
            ],
            [
              77.20671415038966,
              11.463668868888334
            ],
            [
              77.20599536454489,
              11.467012946441212
            ],
            [
              77.20570938284138,
              11.483228570008652
            ],
            [
              77.17651183056446,
              11.475196181194136
            ],
            [
              77.14580498732619,
              11.466117706415794
            ],
            [
              77.14323258532022,
              11.470994518328983
            ]
          ]
        ]
      }
    },
    {
      "type": "Feature",
      "properties": {
        "timestep_min": 120,
        "depth_band": "3.0 - 5.0",
        "min_depth": 3.0,
        "max_depth": 5.0,
        "max_depth_m": 9.9,
        "avg_depth_m": 5.5,
        "inundated_area_km2": 0.48,
        "hazard_level": "Critical",
        "zone": "downstream",
        "wave_front_km": 30.1
      },
      "geometry": {
        "type": "Polygon",
        "coordinates": [
          [
            [
              77.15863202397873,
              11.473368521051169
            ],
            [
              77.17461995334995,
              11.478758372591502
            ],
            [
              77.19448966443126,
              11.483001822653108
            ],
            [
              77.19870886221042,
              11.473441686702447
            ],
            [
              77.19538450901894,
              11.46912735558553
            ],
            [
              77.19496836984564,
              11.471063400484564
            ],
            [
              77.19480280149098,
              11.48045139307624
            ],
            [
              77.17789895543592,
              11.475801062709943
            ],
            [
              77.1601213093506,
              11.470545103627744
            ],
            [
              77.15863202397873,
              11.473368521051169
            ]
          ]
        ]
      }
    },
    {
      "type": "Feature",
      "properties": {
        "timestep_min": 120,
        "depth_band": "> 5.0",
        "min_depth": 5.0,
        "max_depth": 99.0,
        "max_depth_m": 9.9,
        "avg_depth_m": 5.5,
        "inundated_area_km2": 0.22,
        "hazard_level": "Critical",
        "zone": "downstream",
        "wave_front_km": 30.1
      },
      "geometry": {
        "type": "Polygon",
        "coordinates": [
          [
            [
              77.17018160297262,
              11.475149023092808
            ],
            [
              77.1774488435959,
              11.477598955611143
            ],
            [
              77.18648053045104,
              11.479527796548236
            ],
            [
              77.18839834762339,
              11.475182280207026
            ],
            [
              77.18688727799089,
              11.473221220608426
            ],
            [
              77.18669812382122,
              11.47410124101708
            ],
            [
              77.18662286547818,
              11.478368510376932
            ],
            [
              77.17893929908952,
              11.476254723846797
            ],
            [
              77.17085855086893,
              11.473865651536705
            ],
            [
              77.17018160297262,
              11.475149023092808
            ]
          ]
        ]
      }
    },
    {
      "type": "Feature",
      "properties": {
        "timestep_min": 150,
        "depth_band": "0.1 - 0.5",
        "min_depth": 0.1,
        "max_depth": 0.5,
        "max_depth_m": 9.2,
        "avg_depth_m": 5.0,
        "inundated_area_km2": 1.9,
        "hazard_level": "Moderate",
        "zone": "downstream",
        "wave_front_km": 39.2
      },
      "geometry": {
        "type": "Polygon",
        "coordinates": [
          [
            [
              77.08357713921309,
              11.461762310898674
            ],
            [
              77.15681789619211,
              11.485766317528864
            ],
            [
              77.2465660404148,
              11.50544448959455
            ],
            [
              77.26695283683544,
              11.460719886084268
            ],
            [
              77.24876380041867,
              11.451337467363443
            ],
            [
              77.24787980218612,
              11.494744201096339
            ],
            [
              77.17086150380788,
              11.473100482471136
            ],
            [
              77.09031186078691,
              11.448994489101327
            ],
            [
              77.08357713921309,
              11.461762310898674
            ]
          ]
        ]
      }
    },
    {
      "type": "Feature",
      "properties": {
        "timestep_min": 150,
        "depth_band": "0.5 - 1.0",
        "min_depth": 0.5,
        "max_depth": 1.0,
        "max_depth_m": 9.2,
        "avg_depth_m": 5.0,
        "inundated_area_km2": 1.42,
        "hazard_level": "Moderate",
        "zone": "downstream",
        "wave_front_km": 39.2
      },
      "geometry": {
        "type": "Polygon",
        "coordinates": [
          [
            [
              77.1072949849169,
              11.465561941247788
            ],
            [
              77.16222555265117,
              11.483564946220431
            ],
            [
              77.22953666081818,
              11.498323575269696
            ],
            [
              77.24482675813366,
              11.464780122636984
            ],
            [
              77.2311849808211,
              11.457743308596365
            ],
            [
              77.23052198214668,
              11.490298358896037
            ],
            [
              77.17275825836299,
              11.474065569927134
            ],
            [
              77.11234602609727,
              11.45598607489978
            ],
            [
              77.1072949849169,
              11.465561941247788
            ]
          ]
        ]
      }
    },
    {
      "type": "Feature",
      "properties": {
        "timestep_min": 150,
        "depth_band": "1.0 - 2.0",
        "min_depth": 1.0,
        "max_depth": 2.0,
        "max_depth_m": 9.2,
        "avg_depth_m": 5.0,
        "inundated_area_km2": 1.04,
        "hazard_level": "High",
        "zone": "downstream",
        "wave_front_km": 39.2
      },
      "geometry": {
        "type": "Polygon",
        "coordinates": [
          [
            [
              77.12626926147995,
              11.46860164552708
            ],
            [
              77.1665516778184,
              11.481803849173685
            ],
            [
              77.21591315714089,
              11.492626843809813
            ],
            [
              77.22712589517224,
              11.46802831187916
            ],
            [
              77.21712192514302,
              11.462867981582704
            ],
            [
              77.21663572611511,
              11.486741685135797
            ],
            [
              77.17427566200709,
              11.474837639891934
            ],
            [
              77.12997335834555,
              11.461579343538542
            ],
            [
              77.12626926147995,
              11.46860164552708
            ]
          ]
        ]
      }
    },
    {
      "type": "Feature",
      "properties": {
        "timestep_min": 150,
        "depth_band": "2.0 - 3.0",
        "min_depth": 2.0,
        "max_depth": 3.0,
        "max_depth_m": 9.2,
        "avg_depth_m": 5.0,
        "inundated_area_km2": 0.72,
        "hazard_level": "High",
        "zone": "downstream",
        "wave_front_km": 39.2
      },
      "geometry": {
        "type": "Polygon",
        "coordinates": [
          [
            [
              77.14239739655854,
              11.471185394164479
            ],
            [
              77.17022888421056,
              11.48030691668395
            ],
            [
              77.2043331790152,
              11.487784622068911
            ],
            [
              77.21208016165504,
              11.470789272735004
            ],
            [
              77.20516832781666,
              11.46722395362109
            ],
            [
              77.20483240848829,
              11.48371851243959
            ],
            [
              77.17556545510456,
              11.475493899362014
            ],
            [
              77.14495659075659,
              11.466333621881487
            ],
            [
              77.14239739655854,
              11.471185394164479
            ]
          ]
        ]
      }
    },
    {
      "type": "Feature",
      "properties": {
        "timestep_min": 150,
        "depth_band": "3.0 - 5.0",
        "min_depth": 3.0,
        "max_depth": 5.0,
        "max_depth_m": 9.2,
        "avg_depth_m": 5.0,
        "inundated_area_km2": 0.42,
        "hazard_level": "Critical",
        "zone": "downstream",
        "wave_front_km": 39.2
      },
      "geometry": {
        "type": "Polygon",
        "coordinates": [
          [
            [
              77.15757681780897,
              11.473617157587913
            ],
            [
              77.17368978434436,
              11.478898039046555
            ],
            [
              77.19343437607336,
              11.483227236901005
            ],
            [
              77.1979194712859,
              11.473387824128743
            ],
            [
              77.19391788327421,
              11.471323692010163
            ],
            [
              77.19372340366304,
              11.480873173431398
            ],
            [
              77.17677937801983,
              11.476111555333855
            ],
            [
              77.15905845655521,
              11.470808236792497
            ],
            [
              77.15757681780897,
              11.473617157587913
            ]
          ]
        ]
      }
    },
    {
      "type": "Feature",
      "properties": {
        "timestep_min": 150,
        "depth_band": "> 5.0",
        "min_depth": 5.0,
        "max_depth": 99.0,
        "max_depth_m": 9.2,
        "avg_depth_m": 5.0,
        "inundated_area_km2": 0.19,
        "hazard_level": "Critical",
        "zone": "downstream",
        "wave_front_km": 39.2
      },
      "geometry": {
        "type": "Polygon",
        "coordinates": [
          [
            [
              77.16896138374682,
              11.475440980155488
            ],
            [
              77.17628545944471,
              11.477841380818507
            ],
            [
              77.18526027386699,
              11.479809198025075
            ],
            [
              77.18729895350904,
              11.475336737674047
            ],
            [
              77.18548004986737,
              11.474398495801964
            ],
            [
              77.18539165004411,
              11.478739169175254
            ],
            [
              77.1776898202063,
              11.476574797312734
            ],
            [
              77.16963485590419,
              11.474164197975753
            ],
            [
              77.16896138374682,
              11.475440980155488
            ]
          ]
        ]
      }
    },
    {
      "type": "Feature",
      "properties": {
        "timestep_min": 180,
        "depth_band": "0.1 - 0.5",
        "min_depth": 0.1,
        "max_depth": 0.5,
        "max_depth_m": 8.3,
        "avg_depth_m": 4.6,
        "inundated_area_km2": 1.72,
        "hazard_level": "Moderate",
        "zone": "downstream",
        "wave_front_km": 47.5
      },
      "geometry": {
        "type": "Polygon",
        "coordinates": [
          [
            [
              77.08357713921309,
              11.461762310898674
            ],
            [
              77.1574382166956,
              11.4852068546476
            ],
            [
              77.24654274974006,
              11.505634186801853
            ],
            [
              77.26643060842031,
              11.460450505917747
            ],
            [
              77.25399397360421,
              11.454035338415254
            ],
            [
              77.24778175115796,
              11.495542804246295
            ],
            [
              77.1702411833044,
              11.473659945352399
            ],
            [
              77.09031186078691,
              11.448994489101327
            ],
            [
              77.08357713921309,
              11.461762310898674
            ]
          ]
        ]
      }
    },
    {
      "type": "Feature",
      "properties": {
        "timestep_min": 180,
        "depth_band": "0.5 - 1.0",
        "min_depth": 0.5,
        "max_depth": 1.0,
        "max_depth_m": 8.3,
        "avg_depth_m": 4.6,
        "inundated_area_km2": 1.29,
        "hazard_level": "Moderate",
        "zone": "downstream",
        "wave_front_km": 47.5
      },
      "geometry": {
        "type": "Polygon",
        "coordinates": [
          [
            [
              77.10643429950854,
              11.465640728888058
            ],
            [
              77.16183010762042,
              11.483224136699754
            ],
            [
              77.22865850740376,
              11.498544635815442
            ],
            [
              77.24357440141395,
              11.464656875152363
            ],
            [
              77.23424692530187,
              11.459845499525494
            ],
            [
              77.22958775846719,
              11.490976098898773
            ],
            [
              77.17143233257701,
              11.474563954728353
            ],
            [
              77.1114853406889,
              11.45606486254005
            ],
            [
              77.10643429950854,
              11.465640728888058
            ]
          ]
        ]
      }
    },
    {
      "type": "Feature",
      "properties": {
        "timestep_min": 180,
        "depth_band": "1.0 - 2.0",
        "min_depth": 1.0,
        "max_depth": 2.0,
        "max_depth_m": 8.3,
        "avg_depth_m": 4.6,
        "inundated_area_km2": 0.95,
        "hazard_level": "High",
        "zone": "downstream",
        "wave_front_km": 47.5
      },
      "geometry": {
        "type": "Polygon",
        "coordinates": [
          [
            [
              77.1247200277449,
              11.468743463279568
            ],
            [
              77.16534362036029,
              11.481637962341477
            ],
            [
              77.21435111353475,
              11.492872995026316
            ],
            [
              77.22528943580888,
              11.468021970540057
            ],
            [
              77.21844928666002,
              11.464493628413686
            ],
            [
              77.21503256431458,
              11.48732273462076
            ],
            [
              77.17238525199512,
              11.475287162229115
            ],
            [
              77.12842412461052,
              11.461721161291027
            ],
            [
              77.1247200277449,
              11.468743463279568
            ]
          ]
        ]
      }
    },
    {
      "type": "Feature",
      "properties": {
        "timestep_min": 180,
        "depth_band": "2.0 - 3.0",
        "min_depth": 2.0,
        "max_depth": 3.0,
        "max_depth_m": 8.3,
        "avg_depth_m": 4.6,
        "inundated_area_km2": 0.66,
        "hazard_level": "High",
        "zone": "downstream",
        "wave_front_km": 47.5
      },
      "geometry": {
        "type": "Polygon",
        "coordinates": [
          [
            [
              77.14026289674581,
              11.471380787512349
            ],
            [
              77.16833010618916,
              11.48028971413694
            ],
            [
              77.20218982874606,
              11.488052100355556
            ],
            [
              77.20974721504454,
              11.470882301619596
            ],
            [
              77.20502129381444,
              11.46844453796865
            ],
            [
              77.20266064928485,
              11.484217374984446
            ],
            [
              77.17319523350051,
              11.475901888604765
            ],
            [
              77.14282209094387,
              11.466529015229359
            ],
            [
              77.14026289674581,
              11.471380787512349
            ]
          ]
        ]
      }
    },
    {
      "type": "Feature",
      "properties": {
        "timestep_min": 180,
        "depth_band": "3.0 - 5.0",
        "min_depth": 3.0,
        "max_depth": 5.0,
        "max_depth_m": 8.3,
        "avg_depth_m": 4.6,
        "inundated_area_km2": 0.38,
        "hazard_level": "Critical",
        "zone": "downstream",
        "wave_front_km": 47.5
      },
      "geometry": {
        "type": "Polygon",
        "coordinates": [
          [
            [
              77.15489147933489,
              11.473862975025556
            ],
            [
              77.17114091638105,
              11.47902077465032
            ],
            [
              77.19074391365083,
              11.483514787724255
            ],
            [
              77.19511924256048,
              11.47357437792975
            ],
            [
              77.19238318290094,
              11.472163041079202
            ],
            [
              77.19101649396276,
              11.481294683562032
            ],
            [
              77.17395756903498,
              11.476480454605374
            ],
            [
              77.15637311808113,
              11.47105405423014
            ],
            [
              77.15489147933489,
              11.473862975025556
            ]
          ]
        ]
      }
    },
    {
      "type": "Feature",
      "properties": {
        "timestep_min": 180,
        "depth_band": "> 5.0",
        "min_depth": 5.0,
        "max_depth": 99.0,
        "max_depth_m": 8.3,
        "avg_depth_m": 4.6,
        "inundated_area_km2": 0.17,
        "hazard_level": "Critical",
        "zone": "downstream",
        "wave_front_km": 47.5
      },
      "geometry": {
        "type": "Polygon",
        "coordinates": [
          [
            [
              77.16586291627672,
              11.47572461566046
            ],
            [
              77.17324902402497,
              11.478069070035353
            ],
            [
              77.1821594773294,
              11.480111803250779
            ],
            [
              77.18414826319744,
              11.475593435162368
            ],
            [
              77.18290459971583,
              11.474951918412119
            ],
            [
              77.18228337747121,
              11.479102664995223
            ],
            [
              77.17452932068585,
              11.476914379105834
            ],
            [
              77.1665363884341,
              11.474447833480726
            ],
            [
              77.16586291627672,
              11.47572461566046
            ]
          ]
        ]
      }
    },
    {
      "type": "Feature",
      "properties": {
        "timestep_min": 210,
        "depth_band": "0.1 - 0.5",
        "min_depth": 0.1,
        "max_depth": 0.5,
        "max_depth_m": 7.5,
        "avg_depth_m": 4.1,
        "inundated_area_km2": 1.48,
        "hazard_level": "Moderate",
        "zone": "downstream",
        "wave_front_km": 55.2
      },
      "geometry": {
        "type": "Polygon",
        "coordinates": [
          [
            [
              77.08357713921309,
              11.461762310898674
            ],
            [
              77.15997523187603,
              11.4829187377553
            ],
            [
              77.24652926701542,
              11.505744000503624
            ],
            [
              77.2666153637348,
              11.460545807927254
            ],
            [
              77.25398104593592,
              11.454028669958813
            ],
            [
              77.24763988079043,
              11.496698305871515
            ],
            [
              77.1695778496386,
              11.474258201514855
            ],
            [
              77.09031186078691,
              11.448994489101327
            ],
            [
              77.08357713921309,
              11.461762310898674
            ]
          ]
        ]
      }
    },
    {
      "type": "Feature",
      "properties": {
        "timestep_min": 210,
        "depth_band": "0.5 - 1.0",
        "min_depth": 0.5,
        "max_depth": 1.0,
        "max_depth_m": 7.5,
        "avg_depth_m": 4.1,
        "inundated_area_km2": 1.11,
        "hazard_level": "Moderate",
        "zone": "downstream",
        "wave_front_km": 55.2
      },
      "geometry": {
        "type": "Polygon",
        "coordinates": [
          [
            [
              77.10665246760993,
              11.465427752447368
            ],
            [
              77.16395103710714,
              11.48129507258984
            ],
            [
              77.22886656346168,
              11.498414019651081
            ],
            [
              77.24393113600122,
              11.464515375218804
            ],
            [
              77.23445539765206,
              11.459627521742473
            ],
            [
              77.22969952379295,
              11.491629748677
            ],
            [
              77.17115300042907,
              11.474799670409505
            ],
            [
              77.1117035087903,
              11.45585188609936
            ],
            [
              77.10665246760993,
              11.465427752447368
            ]
          ]
        ]
      }
    },
    {
      "type": "Feature",
      "properties": {
        "timestep_min": 210,
        "depth_band": "1.0 - 2.0",
        "min_depth": 1.0,
        "max_depth": 2.0,
        "max_depth_m": 7.5,
        "avg_depth_m": 4.1,
        "inundated_area_km2": 0.82,
        "hazard_level": "High",
        "zone": "downstream",
        "wave_front_km": 55.2
      },
      "geometry": {
        "type": "Polygon",
        "coordinates": [
          [
            [
              77.12511273032742,
              11.468360105686322
            ],
            [
              77.16713168129203,
              11.479996140457468
            ],
            [
              77.2147364006187,
              11.492550034969046
            ],
            [
              77.22578375381435,
              11.467691029052043
            ],
            [
              77.21883487902497,
              11.4641066031694
            ],
            [
              77.21534723819495,
              11.487574902921386
            ],
            [
              77.17241312106145,
              11.475232845525223
            ],
            [
              77.12881682719302,
              11.461337803697784
            ],
            [
              77.12511273032742,
              11.468360105686322
            ]
          ]
        ]
      }
    },
    {
      "type": "Feature",
      "properties": {
        "timestep_min": 210,
        "depth_band": "2.0 - 3.0",
        "min_depth": 2.0,
        "max_depth": 3.0,
        "max_depth_m": 7.5,
        "avg_depth_m": 4.1,
        "inundated_area_km2": 0.56,
        "hazard_level": "High",
        "zone": "downstream",
        "wave_front_km": 55.2
      },
      "geometry": {
        "type": "Polygon",
        "coordinates": [
          [
            [
              77.14080395363727,
              11.470852605939436
            ],
            [
              77.1698352288492,
              11.478892048144953
            ],
            [
              77.20272576220215,
              11.487565647989317
            ],
            [
              77.21035847895553,
              11.470390334810297
            ],
            [
              77.20555743819195,
              11.46791382238229
            ],
            [
              77.20314779543666,
              11.484128284029115
            ],
            [
              77.17348422359896,
              11.475601044373585
            ],
            [
              77.14336314783532,
              11.466000833656445
            ],
            [
              77.14080395363727,
              11.470852605939436
            ]
          ]
        ]
      }
    },
    {
      "type": "Feature",
      "properties": {
        "timestep_min": 210,
        "depth_band": "3.0 - 5.0",
        "min_depth": 3.0,
        "max_depth": 5.0,
        "max_depth_m": 7.5,
        "avg_depth_m": 4.1,
        "inundated_area_km2": 0.33,
        "hazard_level": "Critical",
        "zone": "downstream",
        "wave_front_km": 55.2
      },
      "geometry": {
        "type": "Polygon",
        "coordinates": [
          [
            [
              77.15557216381124,
              11.4731984885306
            ],
            [
              77.17237974419709,
              11.477852902439057
            ],
            [
              77.19142163192777,
              11.48287446024369
            ],
            [
              77.19584057320603,
              11.472930857876888
            ],
            [
              77.19306102329027,
              11.471497087523831
            ],
            [
              77.19166596695825,
              11.480884407424625
            ],
            [
              77.17449232010486,
              11.47594758446616
            ],
            [
              77.15705380255748,
              11.470389567735184
            ],
            [
              77.15557216381124,
              11.4731984885306
            ]
          ]
        ]
      }
    },
    {
      "type": "Feature",
      "properties": {
        "timestep_min": 210,
        "depth_band": "> 5.0",
        "min_depth": 5.0,
        "max_depth": 99.0,
        "max_depth_m": 7.5,
        "avg_depth_m": 4.1,
        "inundated_area_km2": 0.15,
        "hazard_level": "Critical",
        "zone": "downstream",
        "wave_front_km": 55.2
      },
      "geometry": {
        "type": "Polygon",
        "coordinates": [
          [
            [
              77.16664832144173,
              11.474957900473974
            ],
            [
              77.17428813070802,
              11.477073543159637
            ],
            [
              77.18294353422196,
              11.47935606943447
            ],
            [
              77.18495214389391,
              11.474836250176832
            ],
            [
              77.18368871211402,
              11.474184536379989
            ],
            [
              77.18305459559947,
              11.478451499971259
            ],
            [
              77.17524839248429,
              11.476207489535593
            ],
            [
              77.16732179359911,
              11.47368111829424
            ],
            [
              77.16664832144173,
              11.474957900473974
            ]
          ]
        ]
      }
    },
    {
      "type": "Feature",
      "properties": {
        "timestep_min": 240,
        "depth_band": "0.1 - 0.5",
        "min_depth": 0.1,
        "max_depth": 0.5,
        "max_depth_m": 6.5,
        "avg_depth_m": 3.6,
        "inundated_area_km2": 1.45,
        "hazard_level": "Moderate",
        "zone": "downstream",
        "wave_front_km": 62.1
      },
      "geometry": {
        "type": "Polygon",
        "coordinates": [
          [
            [
              77.08357713921309,
              11.461762310898674
            ],
            [
              77.15998561015732,
              11.482909377653362
            ],
            [
              77.24653748527962,
              11.505677064625448
            ],
            [
              77.26656695356458,
              11.460520836594139
            ],
            [
              77.25356565105969,
              11.453814397549106
            ],
            [
              77.24761016860448,
              11.496940304815693
            ],
            [
              77.16923542577975,
              11.474567031285291
            ],
            [
              77.09031186078691,
              11.448994489101327
            ],
            [
              77.08357713921309,
              11.461762310898674
            ]
          ]
        ]
      }
    },
    {
      "type": "Feature",
      "properties": {
        "timestep_min": 240,
        "depth_band": "0.5 - 1.0",
        "min_depth": 0.5,
        "max_depth": 1.0,
        "max_depth_m": 6.5,
        "avg_depth_m": 3.6,
        "inundated_area_km2": 1.09,
        "hazard_level": "Moderate",
        "zone": "downstream",
        "wave_front_km": 62.1
      },
      "geometry": {
        "type": "Polygon",
        "coordinates": [
          [
            [
              77.1066797915927,
              11.465405303088977
            ],
            [
              77.16398614480087,
              11.481265603154993
            ],
            [
              77.2289000511426,
              11.49834136838406
            ],
            [
              77.24392215235632,
              11.464474197360575
            ],
            [
              77.23417117547766,
              11.4594443680768
            ],
            [
              77.22970456363625,
              11.491788798526741
            ],
            [
              77.1709235065177,
              11.47500884337894
            ],
            [
              77.11173083277306,
              11.455829436740968
            ],
            [
              77.1066797915927,
              11.465405303088977
            ]
          ]
        ]
      }
    },
    {
      "type": "Feature",
      "properties": {
        "timestep_min": 240,
        "depth_band": "1.0 - 2.0",
        "min_depth": 1.0,
        "max_depth": 2.0,
        "max_depth_m": 6.5,
        "avg_depth_m": 3.6,
        "inundated_area_km2": 0.8,
        "hazard_level": "High",
        "zone": "downstream",
        "wave_front_km": 62.1
      },
      "geometry": {
        "type": "Polygon",
        "coordinates": [
          [
            [
              77.12516191349638,
              11.46831969684122
            ],
            [
              77.16718657251572,
              11.479950583556299
            ],
            [
              77.21479010383298,
              11.492472811390947
            ],
            [
              77.2258063113897,
              11.467636885973725
            ],
            [
              77.21865559501202,
              11.463948344498958
            ],
            [
              77.21538007966166,
              11.48766759349558
            ],
            [
              77.17227397110805,
              11.475362293053859
            ],
            [
              77.128866010362,
              11.461297394852679
            ],
            [
              77.12516191349638,
              11.46831969684122
            ]
          ]
        ]
      }
    },
    {
      "type": "Feature",
      "properties": {
        "timestep_min": 240,
        "depth_band": "2.0 - 3.0",
        "min_depth": 2.0,
        "max_depth": 3.0,
        "max_depth_m": 6.5,
        "avg_depth_m": 3.6,
        "inundated_area_km2": 0.55,
        "hazard_level": "High",
        "zone": "downstream",
        "wave_front_km": 62.1
      },
      "geometry": {
        "type": "Polygon",
        "coordinates": [
          [
            [
              77.14087171711454,
              11.470796931530627
            ],
            [
              77.16990693607335,
              11.478832816897409
            ],
            [
              77.20279664861981,
              11.487484537946802
            ],
            [
              77.2104078465681,
              11.470325171294903
            ],
            [
              77.20546735161624,
              11.467776724457792
            ],
            [
              77.20320426828326,
              11.484164569219093
            ],
            [
              77.17342186600986,
              11.475662725277541
            ],
            [
              77.14343091131258,
              11.465945159247635
            ],
            [
              77.14087171711454,
              11.470796931530627
            ]
          ]
        ]
      }
    },
    {
      "type": "Feature",
      "properties": {
        "timestep_min": 240,
        "depth_band": "3.0 - 5.0",
        "min_depth": 3.0,
        "max_depth": 5.0,
        "max_depth_m": 6.5,
        "avg_depth_m": 3.6,
        "inundated_area_km2": 0.32,
        "hazard_level": "Critical",
        "zone": "downstream",
        "wave_front_km": 62.1
      },
      "geometry": {
        "type": "Polygon",
        "coordinates": [
          [
            [
              77.15565741463747,
              11.47312844653242
            ],
            [
              77.17246727824521,
              11.47778080121845
            ],
            [
              77.19150869077211,
              11.482789692352311
            ],
            [
              77.1959151737948,
              11.472855322185422
            ],
            [
              77.19305488724373,
              11.471379905595516
            ],
            [
              77.19174468110359,
              11.480867605194165
            ],
            [
              77.17450223768215,
              11.475945485017476
            ],
            [
              77.15713905338372,
              11.470319525737004
            ],
            [
              77.15565741463747,
              11.47312844653242
            ]
          ]
        ]
      }
    },
    {
      "type": "Feature",
      "properties": {
        "timestep_min": 240,
        "depth_band": "> 5.0",
        "min_depth": 5.0,
        "max_depth": 99.0,
        "max_depth_m": 6.5,
        "avg_depth_m": 3.6,
        "inundated_area_km2": 0.14,
        "hazard_level": "Critical",
        "zone": "downstream",
        "wave_front_km": 62.1
      },
      "geometry": {
        "type": "Polygon",
        "coordinates": [
          [
            [
              77.16674668777969,
              11.474877082783767
            ],
            [
              77.17438753487413,
              11.476991789459236
            ],
            [
              77.18304272238635,
              11.479268558156443
            ],
            [
              77.18504566921484,
              11.474752935353314
            ],
            [
              77.18374553896436,
              11.47408229144881
            ],
            [
              77.18314999071885,
              11.478394882175468
            ],
            [
              77.17531251643636,
              11.476157554822429
            ],
            [
              77.16742015993708,
              11.473600300604032
            ],
            [
              77.16674668777969,
              11.474877082783767
            ]
          ]
        ]
      }
    },
    {
      "type": "Feature",
      "properties": {
        "timestep_min": 270,
        "depth_band": "0.1 - 0.5",
        "min_depth": 0.1,
        "max_depth": 0.5,
        "max_depth_m": 5.5,
        "avg_depth_m": 3.0,
        "inundated_area_km2": 1.45,
        "hazard_level": "Moderate",
        "zone": "downstream",
        "wave_front_km": 68.3
      },
      "geometry": {
        "type": "Polygon",
        "coordinates": [
          [
            [
              77.08357713921309,
              11.461762310898674
            ],
            [
              77.15998561015732,
              11.482909377653362
            ],
            [
              77.24653748527962,
              11.505677064625448
            ],
            [
              77.26678498330813,
              11.460633302493966
            ],
            [
              77.25365679288954,
              11.453861411079188
            ],
            [
              77.24761016860448,
              11.496940304815693
            ],
            [
              77.16923542577975,
              11.474567031285291
            ],
            [
              77.09031186078691,
              11.448994489101327
            ],
            [
              77.08357713921309,
              11.461762310898674
            ]
          ]
        ]
      }
    },
    {
      "type": "Feature",
      "properties": {
        "timestep_min": 270,
        "depth_band": "0.5 - 1.0",
        "min_depth": 0.5,
        "max_depth": 1.0,
        "max_depth_m": 5.5,
        "avg_depth_m": 3.0,
        "inundated_area_km2": 1.09,
        "hazard_level": "Moderate",
        "zone": "downstream",
        "wave_front_km": 68.3
      },
      "geometry": {
        "type": "Polygon",
        "coordinates": [
          [
            [
              77.10671951921701,
              11.465406753730925
            ],
            [
              77.16402587242519,
              11.481267053796941
            ],
            [
              77.22893977876691,
              11.498342819026007
            ],
            [
              77.24412540228829,
              11.464559997427394
            ],
            [
              77.23427925947435,
              11.459481078866311
            ],
            [
              77.22974429126056,
              11.49179024916869
            ],
            [
              77.17096323414201,
              11.475010294020889
            ],
            [
              77.11177056039737,
              11.455830887382916
            ],
            [
              77.10671951921701,
              11.465406753730925
            ]
          ]
        ]
      }
    },
    {
      "type": "Feature",
      "properties": {
        "timestep_min": 270,
        "depth_band": "1.0 - 2.0",
        "min_depth": 1.0,
        "max_depth": 2.0,
        "max_depth_m": 5.5,
        "avg_depth_m": 3.0,
        "inundated_area_km2": 0.8,
        "hazard_level": "High",
        "zone": "downstream",
        "wave_front_km": 68.3
      },
      "geometry": {
        "type": "Polygon",
        "coordinates": [
          [
            [
              77.12523342322015,
              11.468322307996726
            ],
            [
              77.16725808223948,
              11.479953194711804
            ],
            [
              77.21486161355675,
              11.492475422546452
            ],
            [
              77.22599773747243,
              11.467701353374137
            ],
            [
              77.21877723274221,
              11.46397681309601
            ],
            [
              77.21545158938542,
              11.487670204651087
            ],
            [
              77.17234548083182,
              11.475364904209366
            ],
            [
              77.12893752008577,
              11.461300006008187
            ],
            [
              77.12523342322015,
              11.468322307996726
            ]
          ]
        ]
      }
    },
    {
      "type": "Feature",
      "properties": {
        "timestep_min": 270,
        "depth_band": "2.0 - 3.0",
        "min_depth": 2.0,
        "max_depth": 3.0,
        "max_depth_m": 5.5,
        "avg_depth_m": 3.0,
        "inundated_area_km2": 0.55,
        "hazard_level": "High",
        "zone": "downstream",
        "wave_front_km": 68.3
      },
      "geometry": {
        "type": "Polygon",
        "coordinates": [
          [
            [
              77.14097024162282,
              11.470800529122657
            ],
            [
              77.17000546058162,
              11.47883641448944
            ],
            [
              77.2028951731281,
              11.487488135538833
            ],
            [
              77.21058922237893,
              11.470371505928867
            ],
            [
              77.20560051001988,
              11.467798187191253
            ],
            [
              77.20330279279155,
              11.484168166811124
            ],
            [
              77.17352039051815,
              11.475666322869571
            ],
            [
              77.14352943582088,
              11.465948756839666
            ],
            [
              77.14097024162282,
              11.470800529122657
            ]
          ]
        ]
      }
    },
    {
      "type": "Feature",
      "properties": {
        "timestep_min": 270,
        "depth_band": "3.0 - 5.0",
        "min_depth": 3.0,
        "max_depth": 5.0,
        "max_depth_m": 5.5,
        "avg_depth_m": 3.0,
        "inundated_area_km2": 0.32,
        "hazard_level": "Critical",
        "zone": "downstream",
        "wave_front_km": 68.3
      },
      "geometry": {
        "type": "Polygon",
        "coordinates": [
          [
            [
              77.15578136482533,
              11.473132972535298
            ],
            [
              77.17259122843306,
              11.47778532722133
            ],
            [
              77.19163264095997,
              11.482794218355188
            ],
            [
              77.19608709052625,
              11.472884590686261
            ],
            [
              77.19319888863416,
              11.47139477457501
            ],
            [
              77.19186863129144,
              11.480872131197042
            ],
            [
              77.17462618787,
              11.475950011020354
            ],
            [
              77.15726300357157,
              11.470324051739881
            ],
            [
              77.15578136482533,
              11.473132972535298
            ]
          ]
        ]
      }
    },
    {
      "type": "Feature",
      "properties": {
        "timestep_min": 270,
        "depth_band": "> 5.0",
        "min_depth": 5.0,
        "max_depth": 99.0,
        "max_depth_m": 5.5,
        "avg_depth_m": 3.0,
        "inundated_area_km2": 0.14,
        "hazard_level": "Critical",
        "zone": "downstream",
        "wave_front_km": 68.3
      },
      "geometry": {
        "type": "Polygon",
        "coordinates": [
          [
            [
              77.16688970722723,
              11.474882305094779
            ],
            [
              77.17453055432165,
              11.476997011770248
            ],
            [
              77.18318574183387,
              11.479273780467455
            ],
            [
              77.18521049163672,
              11.474769404254307
            ],
            [
              77.18389767259487,
              11.47409221511283
            ],
            [
              77.18329301016635,
              11.47840010448648
            ],
            [
              77.17545553588388,
              11.47616277713344
            ],
            [
              77.1675631793846,
              11.473605522915044
            ],
            [
              77.16688970722723,
              11.474882305094779
            ]
          ]
        ]
      }
    },
    {
      "type": "Feature",
      "properties": {
        "timestep_min": 300,
        "depth_band": "0.1 - 0.5",
        "min_depth": 0.1,
        "max_depth": 0.5,
        "max_depth_m": 4.3,
        "avg_depth_m": 2.4,
        "inundated_area_km2": 1.45,
        "hazard_level": "Moderate",
        "zone": "downstream",
        "wave_front_km": 73.7
      },
      "geometry": {
        "type": "Polygon",
        "coordinates": [
          [
            [
              77.08357713921309,
              11.461762310898674
            ],
            [
              77.15998561015732,
              11.482909377653362
            ],
            [
              77.24653748527962,
              11.505677064625448
            ],
            [
              77.26683132100813,
              11.4606572047884
            ],
            [
              77.25353594684131,
              11.453799075274297
            ],
            [
              77.24761016860448,
              11.496940304815693
            ],
            [
              77.16923542577975,
              11.474567031285291
            ],
            [
              77.09031186078691,
              11.448994489101327
            ],
            [
              77.08357713921309,
              11.461762310898674
            ]
          ]
        ]
      }
    },
    {
      "type": "Feature",
      "properties": {
        "timestep_min": 300,
        "depth_band": "0.5 - 1.0",
        "min_depth": 0.5,
        "max_depth": 1.0,
        "max_depth_m": 4.3,
        "avg_depth_m": 2.4,
        "inundated_area_km2": 1.09,
        "hazard_level": "Moderate",
        "zone": "downstream",
        "wave_front_km": 73.7
      },
      "geometry": {
        "type": "Polygon",
        "coordinates": [
          [
            [
              77.10675573161032,
              11.465404070274854
            ],
            [
              77.16406208481851,
              11.48126437034087
            ],
            [
              77.22897599116023,
              11.498340135569936
            ],
            [
              77.24419636795662,
              11.464575240692149
            ],
            [
              77.2342248373315,
              11.459431643556572
            ],
            [
              77.22978050365387,
              11.491787565712619
            ],
            [
              77.17099944653532,
              11.475007610564818
            ],
            [
              77.11180677279069,
              11.455828203926846
            ],
            [
              77.10675573161032,
              11.465404070274854
            ]
          ]
        ]
      }
    },
    {
      "type": "Feature",
      "properties": {
        "timestep_min": 300,
        "depth_band": "1.0 - 2.0",
        "min_depth": 1.0,
        "max_depth": 2.0,
        "max_depth_m": 4.3,
        "avg_depth_m": 2.4,
        "inundated_area_km2": 0.8,
        "hazard_level": "High",
        "zone": "downstream",
        "wave_front_km": 73.7
      },
      "geometry": {
        "type": "Polygon",
        "coordinates": [
          [
            [
              77.12529860552812,
              11.468317477775798
            ],
            [
              77.16732326454745,
              11.479948364490877
            ],
            [
              77.21492679586471,
              11.492470592325525
            ],
            [
              77.22608840551538,
              11.46770966941515
            ],
            [
              77.21877594972364,
              11.463937698182392
            ],
            [
              77.21551677169339,
              11.48766537443016
            ],
            [
              77.17241066313979,
              11.475360073988439
            ],
            [
              77.12900270239373,
              11.46129517578726
            ],
            [
              77.12529860552812,
              11.468317477775798
            ]
          ]
        ]
      }
    },
    {
      "type": "Feature",
      "properties": {
        "timestep_min": 300,
        "depth_band": "2.0 - 3.0",
        "min_depth": 2.0,
        "max_depth": 3.0,
        "max_depth_m": 4.3,
        "avg_depth_m": 2.4,
        "inundated_area_km2": 0.55,
        "hazard_level": "High",
        "zone": "downstream",
        "wave_front_km": 73.7
      },
      "geometry": {
        "type": "Polygon",
        "coordinates": [
          [
            [
              77.14106004835826,
              11.470793874151603
            ],
            [
              77.17009526731707,
              11.478829759518383
            ],
            [
              77.20298497986353,
              11.487481480567777
            ],
            [
              77.21069663744036,
              11.470373933829698
            ],
            [
              77.20564439525697,
              11.46776784461434
            ],
            [
              77.20339259952698,
              11.48416151184007
            ],
            [
              77.17361019725358,
              11.475659667898517
            ],
            [
              77.1436192425563,
              11.46594210186861
            ],
            [
              77.14106004835826,
              11.470793874151603
            ]
          ]
        ]
      }
    },
    {
      "type": "Feature",
      "properties": {
        "timestep_min": 300,
        "depth_band": "3.0 - 5.0",
        "min_depth": 3.0,
        "max_depth": 5.0,
        "max_depth_m": 4.3,
        "avg_depth_m": 2.4,
        "inundated_area_km2": 0.32,
        "hazard_level": "Critical",
        "zone": "downstream",
        "wave_front_km": 73.7
      },
      "geometry": {
        "type": "Polygon",
        "coordinates": [
          [
            [
              77.15589434749248,
              11.473124600152358
            ],
            [
              77.17270421110021,
              11.47777695483839
            ],
            [
              77.19174562362711,
              11.482785845972248
            ],
            [
              77.19621026748739,
              11.472881476808098
            ],
            [
              77.19328528517069,
              11.471372688314995
            ],
            [
              77.19198161395859,
              11.480863758814102
            ],
            [
              77.17473917053715,
              11.475941638637414
            ],
            [
              77.15737598623872,
              11.470315679356942
            ],
            [
              77.15589434749248,
              11.473124600152358
            ]
          ]
        ]
      }
    },
    {
      "type": "Feature",
      "properties": {
        "timestep_min": 330,
        "depth_band": "0.1 - 0.5",
        "min_depth": 0.1,
        "max_depth": 0.5,
        "max_depth_m": 2.8,
        "avg_depth_m": 1.6,
        "inundated_area_km2": 1.43,
        "hazard_level": "Moderate",
        "zone": "downstream",
        "wave_front_km": 78.1
      },
      "geometry": {
        "type": "Polygon",
        "coordinates": [
          [
            [
              77.08357713921309,
              11.461762310898674
            ],
            [
              77.15998561015732,
              11.482909377653362
            ],
            [
              77.24653748527962,
              11.505677064625448
            ],
            [
              77.26571019512792,
              11.46007889639395
            ],
            [
              77.25410894662822,
              11.454094644748377
            ],
            [
              77.24761016860448,
              11.496940304815693
            ],
            [
              77.16923542577975,
              11.474567031285291
            ],
            [
              77.09031186078691,
              11.448994489101327
            ],
            [
              77.08357713921309,
              11.461762310898674
            ]
          ]
        ]
      }
    },
    {
      "type": "Feature",
      "properties": {
        "timestep_min": 330,
        "depth_band": "0.5 - 1.0",
        "min_depth": 0.5,
        "max_depth": 1.0,
        "max_depth_m": 2.8,
        "avg_depth_m": 1.6,
        "inundated_area_km2": 1.07,
        "hazard_level": "Moderate",
        "zone": "downstream",
        "wave_front_km": 78.1
      },
      "geometry": {
        "type": "Polygon",
        "coordinates": [
          [
            [
              77.10633880899512,
              11.465419533944537
            ],
            [
              77.1636451622033,
              11.481279834010554
            ],
            [
              77.22855906854502,
              11.49835559923962
            ],
            [
              77.24293860093124,
              11.464156973065995
            ],
            [
              77.23423766455647,
              11.459668784331814
            ],
            [
              77.22936358103867,
              11.491803029382302
            ],
            [
              77.17058252392012,
              11.475023074234501
            ],
            [
              77.11138985017548,
              11.455843667596529
            ],
            [
              77.10633880899512,
              11.465419533944537
            ]
          ]
        ]
      }
    },
    {
      "type": "Feature",
      "properties": {
        "timestep_min": 330,
        "depth_band": "1.0 - 2.0",
        "min_depth": 1.0,
        "max_depth": 2.0,
        "max_depth_m": 2.8,
        "avg_depth_m": 1.6,
        "inundated_area_km2": 0.79,
        "hazard_level": "High",
        "zone": "downstream",
        "wave_front_km": 78.1
      },
      "geometry": {
        "type": "Polygon",
        "coordinates": [
          [
            [
              77.12454814482075,
              11.468345312381228
            ],
            [
              77.16657280384007,
              11.479976199096306
            ],
            [
              77.21417633515733,
              11.492498426930954
            ],
            [
              77.22472132557391,
              11.46741943440363
            ],
            [
              77.21834063889906,
              11.464128095998564
            ],
            [
              77.21476631098601,
              11.487693209035589
            ],
            [
              77.1716602024324,
              11.475387908593868
            ],
            [
              77.12825224168634,
              11.46132301039269
            ],
            [
              77.12454814482075,
              11.468345312381228
            ]
          ]
        ]
      }
    },
    {
      "type": "Feature",
      "properties": {
        "timestep_min": 330,
        "depth_band": "2.0 - 3.0",
        "min_depth": 2.0,
        "max_depth": 3.0,
        "max_depth_m": 2.8,
        "avg_depth_m": 1.6,
        "inundated_area_km2": 0.54,
        "hazard_level": "High",
        "zone": "downstream",
        "wave_front_km": 78.1
      },
      "geometry": {
        "type": "Polygon",
        "coordinates": [
          [
            [
              77.14002608027252,
              11.470832224052415
            ],
            [
              77.16906129923132,
              11.478868109419196
            ],
            [
              77.2019510117778,
              11.487519830468589
            ],
            [
              77.20923664152015,
              11.470192526540622
            ],
            [
              77.20482816709027,
              11.467918510915304
            ],
            [
              77.20235863144124,
              11.484199861740883
            ],
            [
              77.17257622916784,
              11.475698017799331
            ],
            [
              77.14258527447058,
              11.465980451769424
            ],
            [
              77.14002608027252,
              11.470832224052415
            ]
          ]
        ]
      }
    },
    {
      "type": "Feature",
      "properties": {
        "timestep_min": 360,
        "depth_band": "0.1 - 0.5",
        "min_depth": 0.1,
        "max_depth": 0.5,
        "max_depth_m": 0.2,
        "avg_depth_m": 0.1,
        "inundated_area_km2": 1.22,
        "hazard_level": "Moderate",
        "zone": "downstream",
        "wave_front_km": 81.0
      },
      "geometry": {
        "type": "Polygon",
        "coordinates": [
          [
            [
              77.08357713921309,
              11.461762310898674
            ],
            [
              77.16240818091558,
              11.480724477414105
            ],
            [
              77.24653748527962,
              11.505677064625448
            ],
            [
              77.26223322947281,
              11.458285379304495
            ],
            [
              77.25799561356948,
              11.456099497332957
            ],
            [
              77.24761016860448,
              11.496940304815693
            ],
            [
              77.16923542577975,
              11.474567031285291
            ],
            [
              77.09031186078691,
              11.448994489101327
            ],
            [
              77.08357713921309,
              11.461762310898674
            ]
          ]
        ]
      }
    }
  ],
  "properties": {
    "simulation_id": "sim-bhavanisagar-dam-terrain-30-360",
    "dam_id": "bhavanisagar-dam",
    "dam_name": "Bhavanisagar Dam",
    "dam_lat": 11.4625,
    "dam_lon": 77.087,
    "release_percent": 30.0,
    "duration_min": 360.0,
    "max_depth_m": 9.9,
    "max_inundated_area_km2": 2.19,
    "timesteps_min": [
      0,
      30,
      60,
      90,
      120,
      150,
      180,
      210,
      240,
      270,
      300,
      330,
      360
    ],
    "hydrograph": {
      "q_peak_m3s": 1025.57,
      "total_volume_m3": 11076137.49,
      "effective_breach_width_m": 20.0,
      "eff_height_m": 9.7,
      "duration_sec": 21600.0
    }
  }
}