{
  "type": "FeatureCollection",
  "features": [
    {
      "type": "Feature",
      "properties": {
        "satellite": "Sentinel-1A SAR",
        "mode": "IW GRDH",
        "polarization": "VV+VH",
        "observation_time": "2026-09-15T12:00:00Z",
        "water_mask_type": "SAR Thresholding & Backscatter Deviation"
      },
      "geometry": {
        "type": "Polygon",
        "coordinates": [
          [
            [
              78.48,
              30.377
            ],
            [
              78.495,
              30.365
            ],
            [
              78.51,
              30.335
            ],
            [
              78.528,
              30.295
            ],
            [
              78.52,
              30.29
            ],
            [
              78.5,
              30.33
            ],
            [
              78.485,
              30.36
            ],
            [
              78.475,
              30.375
            ],
            [
              78.48,
              30.377
            ]
          ]
        ]
      }
    }
  ]
}