{
  "type": "FeatureCollection",
  "features": [
    {
      "type": "Feature",
      "properties": {
        "name": "Bhagirathi River",
        "width_m": 80,
        "avg_depth_m": 8.5
      },
      "geometry": {
        "type": "LineString",
        "coordinates": [
          [
            78.45,
            30.45
          ],
          [
            78.45378,
            30.44496
          ],
          [
            78.45756,
            30.43992
          ],
          [
            78.46134,
            30.43487
          ],
          [
            78.46513,
            30.42983
          ],
          [
            78.46891,
            30.42479
          ],
          [
            78.47269,
            30.41975
          ],
          [
            78.47647,
            30.41471
          ],
          [
            78.48025,
            30.40966
          ],
          [
            78.48403,
            30.40462
          ],
          [
            78.48782,
            30.39958
          ],
          [
            78.4916,
            30.39454
          ],
          [
            78.49538,
            30.3895
          ],
          [
            78.49916,
            30.38445
          ],
          [
            78.50294,
            30.37941
          ],
          [
            78.50672,
            30.37437
          ],
          [
            78.5105,
            30.36933
          ],
          [
            78.51429,
            30.36429
          ],
          [
            78.51807,
            30.35924
          ],
          [
            78.52185,
            30.3542
          ],
          [
            78.52563,
            30.34916
          ],
          [
            78.52941,
            30.34412
          ],
          [
            78.53319,
            30.33908
          ],
          [
            78.53697,
            30.33403
          ],
          [
            78.54076,
            30.32899
          ],
          [
            78.54454,
            30.32395
          ],
          [
            78.54832,
            30.31891
          ],
          [
            78.5521,
            30.31387
          ],
          [
            78.55588,
            30.30882
          ],
          [
            78.55966,
            30.30378
          ],
          [
            78.56345,
            30.29874
          ],
          [
            78.56723,
            30.2937
          ],
          [
            78.57101,
            30.28866
          ],
          [
            78.57479,
            30.28361
          ],
          [
            78.57857,
            30.27857
          ],
          [
            78.58235,
            30.27353
          ],
          [
            78.58613,
            30.26849
          ],
          [
            78.58992,
            30.26345
          ],
          [
            78.5937,
            30.2584
          ],
          [
            78.59748,
            30.25336
          ]
        ]
      }
    }
  ]
}