{
  "type": "FeatureCollection",
  "features": [
    {
      "type": "Feature",
      "properties": {
        "name": "Arizona Spillway",
        "waterway": "canal",
        "source": "OpenStreetMap"
      },
      "geometry": {
        "type": "LineString",
        "coordinates": [
          [
            -114.7350415,
            36.0142667
          ],
          [
            -114.7348937,
            36.0140677
          ],
          [
            -114.73603,
            36.0134594
          ]
        ]
      }
    },
    {
      "type": "Feature",
      "properties": {
        "name": "Arizona Spillway",
        "waterway": "canal",
        "source": "OpenStreetMap"
      },
      "geometry": {
        "type": "LineString",
        "coordinates": [
          [
            -114.73603,
            36.0134594
          ],
          [
            -114.7415095,
            36.0104599
          ],
          [
            -114.7417442,
            36.0103015
          ]
        ]
      }
    },
    {
      "type": "Feature",
      "properties": {
        "name": "Colorado River",
        "waterway": "river",
        "source": "OpenStreetMap"
      },
      "geometry": {
        "type": "LineString",
        "coordinates": [
          [
            -114.7422983,
            36.0110123
          ],
          [
            -114.7425518,
            36.01053
          ],
          [
            -114.7426951,
            36.0101868
          ],
          [
            -114.7427394,
            36.0100636
          ],
          [
            -114.7428203,
            36.0098383
          ],
          [
            -114.742943,
            36.0094461
          ],
          [
            -114.743174,
            36.0083325
          ],
          [
            -114.7432415,
            36.0072046
          ],
          [
            -114.7431446,
            36.0060781
          ],
          [
            -114.7428847,
            36.0049686
          ],
          [
            -114.7415424,
            35.9999757
          ],
          [
            -114.7412226,
            35.9988148
          ],
          [
            -114.7404005,
            35.9958302
          ],
          [
            -114.7396231,
            35.9930077
          ],
          [
            -114.7395295,
            35.9926176
          ],
          [
            -114.7394911,
            35.9922214
          ],
          [
            -114.7395084,
            35.9918242
          ],
          [
            -114.7395812,
            35.9914312
          ],
          [
            -114.7397084,
            35.9910474
          ],
          [
            -114.7398886,
            35.9906777
          ],
          [
            -114.7401193,
            35.9903269
          ],
          [
            -114.7403976,
            35.9899994
          ],
          [
            -114.74072,
            35.9896996
          ],
          [
            -114.7410822,
            35.9894312
          ],
          [
            -114.7425843,
            35.9881117
          ],
          [
            -114.743024,
            35.9873341
          ],
          [
            -114.7433444,
            35.9865193
          ],
          [
            -114.7435407,
            35.985679
          ],
          [
            -114.7436102,
            35.9848257
          ],
          [
            -114.7435517,
            35.9839719
          ],
          [
            -114.7433662,
            35.9831301
          ],
          [
            -114.7430563,
            35.9823125
          ],
          [
            -114.7418476,
            35.9787065
          ],
          [
            -114.7401527,
            35.9752308
          ],
          [
            -114.7379923,
            35.9719284
          ],
          [
            -114.7367628,
            35.9702062
          ],
          [
            -114.7353276,
            35.9685916
          ],
          [
            -114.7337008,
            35.9671006
          ],
          [
            -114.7324575,
            35.965847
          ],
          [
            -114.7313791,
            35.964497
          ],
          [
            -114.7304771,
            35.9630648
          ],
          [
            -114.7297607,
            35.9615654
          ],
          [
            -114.7292376,
            35.9600146
          ],
          [
            -114.7284651,
            35.9568882
          ],
          [
            -114.7282521,
            35.9562586
          ],
          [
            -114.7281204,
            35.9556145
          ],
          [
            -114.7280715,
            35.9549629
          ],
          [
            -114.7281059,
            35.9543107
          ],
          [
            -114.7282232,
            35.9536648
          ],
          [
            -114.7284222,
            35.9530322
          ],
          [
            -114.730568,
            35.9463966
          ],
          [
            -114.7307498,
            35.9457683
          ],
          [
            -114.7308367,
            35.9451268
          ],
          [
            -114.7308271,
            35.9444816
          ],
          [
            -114.7307214,
            35.9438419
          ],
          [
            -114.730521,
            35.9432173
          ],
          [
            -114.7302289,
            35.9426169
          ],
          [
            -114.7298493,
            35.9420494
          ],
          [
            -114.7293879,
            35.9415232
          ],
          [
            -114.7288514,
            35.941046
          ],
          [
            -114.7223711,
            35.9378494
          ],
          [
            -114.7203317,
            35.9368952
          ],
          [
            -114.7182942,
            35.9359383
          ],
          [
            -114.7157316,
            35.9344941
          ],
          [
            -114.7134018,
            35.932811
          ],
          [
            -114.7091532,
            35.9296835
          ],
          [
            -114.7087214,
            35.929379
          ],
          [
            -114.7083346,
            35.9290371
          ],
          [
            -114.7079979,
            35.9286621
          ],
          [
            -114.7077154,
            35.9282588
          ],
          [
            -114.7074907,
            35.9278323
          ],
          [
            -114.7073268,
            35.927388
          ],
          [
            -114.7072257,
            35.9269317
          ],
          [
            -114.7071886,
            35.926469
          ],
          [
            -114.7072161,
            35.9260058
          ],
          [
            -114.7073079,
            35.9255481
          ],
          [
            -114.7082949,
            35.9143398
          ],
          [
            -114.7083472,
            35.9134736
          ],
          [
            -114.708275,
            35.9126083
          ],
          [
            -114.7080792,
            35.9117557
          ],
          [
            -114.7077626,
            35.9109272
          ],
          [
            -114.7073293,
            35.9101341
          ],
          [
            -114.7049772,
            35.9078734
          ],
          [
            -114.702673,
            35.9055806
          ],
          [
            -114.7013926,
            35.9041233
          ],
          [
            -114.7002948,
            35.9025715
          ],
          [
            -114.69939,
            35.9009399
          ],
          [
            -114.6983864,
            35.8995379
          ],
          [
            -114.6971814,
            35.8982443
          ],
          [
            -114.6957925,
            35.8970778
          ],
          [
            -114.6942401,
            35.8960555
          ],
          [
            -114.6810436,
            35.8871378
          ],
          [
            -114.6795147,
            35.8860921
          ],
          [
            -114.6781233,
            35.884927
          ],
          [
            -114.6768835,
            35.8836545
          ],
          [
            -114.675808,
            35.8822874
          ],
          [
            -114.6726108,
            35.8784104
          ],
          [
            -114.671844,
            35.8776264
          ],
          [
            -114.6709685,
            35.8769212
          ],
          [
            -114.6699965,
            35.8763045
          ],
          [
            -114.6689415,
            35.875785
          ],
          [
            -114.6668855,
            35.8750411
          ],
          [
            -114.6647358,
            35.8744983
          ],
          [
            -114.6643319,
            35.8743857
          ],
          [
            -114.6639475,
            35.8742348
          ],
          [
            -114.663588,
            35.8740479
          ],
          [
            -114.6632586,
            35.8738275
          ],
          [
            -114.662964,
            35.8735769
          ],
          [
            -114.6627083,
            35.8732997
          ],
          [
            -114.6624953,
            35.8729997
          ],
          [
            -114.6623278,
            35.8726813
          ],
          [
            -114.6622085,
            35.8723489
          ],
          [
            -114.6621389,
            35.8720075
          ],
          [
            -114.66212,
            35.8716617
          ],
          [
            -114.6621521,
            35.8713165
          ],
          [
            -114.6622348,
            35.8709769
          ],
          [
            -114.6623668,
            35.8706478
          ],
          [
            -114.6625463,
            35.8703337
          ],
          [
            -114.6627708,
            35.8700392
          ],
          [
            -114.663037,
            35.8697685
          ],
          [
            -114.6633411,
            35.8695254
          ],
          [
            -114.6658516,
            35.86803
          ],
          [
            -114.6703577,
            35.865613
          ],
          [
            -114.6720203,
            35.8648935
          ],
          [
            -114.6737626,
            35.864311
          ],
          [
            -114.6755675,
            35.8638712
          ],
          [
            -114.6774173,
            35.8635784
          ],
          [
            -114.6800879,
            35.8632513
          ],
          [
            -114.6826955,
            35.8626808
          ],
          [
            -114.6852064,
            35.8618742
          ],
          [
            -114.6894121,
            35.8601178
          ],
          [
            -114.6900973,
            35.8596872
          ],
          [
            -114.6907148,
            35.859194
          ],
          [
            -114.691256,
            35.858645
          ],
          [
            -114.6917134,
            35.858048
          ],
          [
            -114.6920803,
            35.8574114
          ],
          [
            -114.6923518,
            35.856744
          ],
          [
            -114.6924708,
            35.8562959
          ],
          [
            -114.6926552,
            35.8558626
          ],
          [
            -114.6929022,
            35.8554502
          ],
          [
            -114.6932083,
            35.8550648
          ],
          [
            -114.6935692,
            35.8547119
          ],
          [
            -114.6939797,
            35.8543965
          ],
          [
            -114.6944337,
            35.8541233
          ],
          [
            -114.6949249,
            35.853896
          ],
          [
            -114.6954461,
            35.8537181
          ],
          [
            -114.6959899,
            35.853592
          ],
          [
            -114.6965483,
            35.8535196
          ],
          [
            -114.6971134,
            35.8535019
          ],
          [
            -114.6976771,
            35.8535392
          ],
          [
            -114.6982312,
            35.8536309
          ],
          [
            -114.6988946,
            35.8536494
          ],
          [
            -114.6995559,
            35.8536028
          ],
          [
            -114.7002053,
            35.8534918
          ],
          [
            -114.7030163,
            35.8526396
          ],
          [
            -114.7036449,
            35.8522878
          ],
          [
            -114.7042176,
            35.8518781
          ],
          [
            -114.7047264,
            35.8514163
          ],
          [
            -114.705164,
            35.8509088
          ],
          [
            -114.7055244,
            35.8503629
          ],
          [
            -114.7058024,
            35.8497862
          ],
          [
            -114.7059941,
            35.8491869
          ],
          [
            -114.7060968,
            35.8485733
          ],
          [
            -114.7061091,
            35.8479542
          ],
          [
            -114.7060307,
            35.8473383
          ],
          [
            -114.7058629,
            35.8467343
          ],
          [
            -114.7056079,
            35.8461506
          ],
          [
            -114.7052694,
            35.8455955
          ],
          [
            -114.6967292,
            35.8344977
          ],
          [
            -114.6963244,
            35.8340011
          ],
          [
            -114.6959963,
            35.8334687
          ],
          [
            -114.6957496,
            35.8329081
          ],
          [
            -114.6955878,
            35.8323275
          ],
          [
            -114.6955135,
            35.8317353
          ],
          [
            -114.6955918,
            35.8304907
          ],
          [
            -114.6958558,
            35.8292629
          ],
          [
            -114.6963015,
            35.8280702
          ],
          [
            -114.6969224,
            35.8269301
          ],
          [
            -114.6995831,
            35.8234505
          ],
          [
            -114.7005708,
            35.8221995
          ],
          [
            -114.7013785,
            35.8208664
          ],
          [
            -114.701996,
            35.8194679
          ],
          [
            -114.7024156,
            35.818022
          ],
          [
            -114.7028447,
            35.815934
          ],
          [
            -114.7029929,
            35.8153982
          ],
          [
            -114.7032119,
            35.8148785
          ],
          [
            -114.7034992,
            35.8143812
          ],
          [
            -114.7038514,
            35.8139121
          ],
          [
            -114.7042643,
            35.8134768
          ],
          [
            -114.704733,
            35.8130804
          ],
          [
            -114.7065354,
            35.8121059
          ],
          [
            -114.7073971,
            35.8116549
          ],
          [
            -114.7081914,
            35.8111289
          ],
          [
            -114.7089086,
            35.8105343
          ],
          [
            -114.7095395,
            35.8098786
          ],
          [
            -114.7110629,
            35.8081036
          ],
          [
            -114.7113419,
            35.8073728
          ],
          [
            -114.7114417,
            35.806757
          ],
          [
            -114.7114489,
            35.8061359
          ],
          [
            -114.7113635,
            35.8055187
          ],
          [
            -114.7111867,
            35.8049144
          ],
          [
            -114.7109211,
            35.8043318
          ],
          [
            -114.7105706,
            35.8037796
          ],
          [
            -114.7101403,
            35.8032658
          ],
          [
            -114.7065354,
            35.7999244
          ],
          [
            -114.7048122,
            35.7981925
          ],
          [
            -114.7033597,
            35.7963044
          ],
          [
            -114.7000123,
            35.7918487
          ],
          [
            -114.6993583,
            35.7905861
          ],
          [
            -114.698897,
            35.7892686
          ],
          [
            -114.6986349,
            35.7879156
          ],
          [
            -114.698576,
            35.7865469
          ],
          [
            -114.6987211,
            35.7851823
          ],
          [
            -114.6990682,
            35.7838419
          ],
          [
            -114.7002698,
            35.7784107
          ],
          [
            -114.7008235,
            35.7761104
          ],
          [
            -114.7010702,
            35.7737751
          ],
          [
            -114.7010069,
            35.7714318
          ],
          [
            -114.7006344,
            35.7691074
          ],
          [
            -114.6999569,
            35.7668288
          ],
          [
            -114.6989823,
            35.7646221
          ],
          [
            -114.6961242,
            35.759892
          ],
          [
            -114.6957434,
            35.7593697
          ],
          [
            -114.695442,
            35.7588143
          ],
          [
            -114.6952244,
            35.7582336
          ],
          [
            -114.6950937,
            35.7576361
          ],
          [
            -114.6950518,
            35.7570302
          ],
          [
            -114.6950992,
            35.7564245
          ],
          [
            -114.6952352,
            35.7558277
          ],
          [
            -114.695458,
            35.7552484
          ],
          [
            -114.6957644,
            35.7546947
          ],
          [
            -114.6961285,
            35.7537742
          ],
          [
            -114.6966561,
            35.7520745
          ],
          [
            -114.6968975,
            35.7499434
          ],
          [
            -114.6968717,
            35.7478034
          ],
          [
            -114.6965791,
            35.7456764
          ],
          [
            -114.6967646,
            35.7378009
          ],
          [
            -114.698124,
            35.7303493
          ]
        ]
      }
    },
    {
      "type": "Feature",
      "properties": {
        "name": "River",
        "waterway": "river",
        "source": "OpenStreetMap"
      },
      "geometry": {
        "type": "LineString",
        "coordinates": [
          [
            -115.0471478,
            36.1079657
          ],
          [
            -115.0460843,
            36.1079666
          ],
          [
            -115.0442554,
            36.1079355
          ],
          [
            -115.0421702,
            36.1079303
          ],
          [
            -115.0399569,
            36.1079122
          ],
          [
            -115.037734,
            36.1078993
          ],
          [
            -115.0343804,
            36.1078631
          ],
          [
            -115.0334323,
            36.1078501
          ],
          [
            -115.0307002,
            36.1078424
          ],
          [
            -115.0291243,
            36.1077803
          ],
          [
            -115.0271288,
            36.1077544
          ],
          [
            -115.0252838,
            36.1077958
          ],
          [
            -115.024025,
            36.1078087
          ],
          [
            -115.023542,
            36.1077996
          ],
          [
            -115.0232235,
            36.1078579
          ],
          [
            -115.0226198,
            36.1075905
          ],
          [
            -115.0223067,
            36.1072757
          ],
          [
            -115.0211899,
            36.1065998
          ]
        ]
      }
    },
    {
      "type": "Feature",
      "properties": {
        "name": "River",
        "waterway": "canal",
        "source": "OpenStreetMap"
      },
      "geometry": {
        "type": "LineString",
        "coordinates": [
          [
            -115.0345824,
            36.1187734
          ],
          [
            -115.0346976,
            36.1186297
          ],
          [
            -115.0347271,
            36.1184401
          ],
          [
            -115.0347789,
            36.1181318
          ]
        ]
      }
    },
    {
      "type": "Feature",
      "properties": {
        "name": "West End Wash",
        "waterway": "river",
        "source": "OpenStreetMap"
      },
      "geometry": {
        "type": "LineString",
        "coordinates": [
          [
            -114.7466385,
            36.2285157
          ],
          [
            -114.746557,
            36.22834
          ],
          [
            -114.7465095,
            36.2281587
          ],
          [
            -114.7465633,
            36.2276973
          ],
          [
            -114.746746,
            36.2271424
          ],
          [
            -114.7468951,
            36.2268787
          ],
          [
            -114.7474641,
            36.2262083
          ],
          [
            -114.7475453,
            36.2260104
          ],
          [
            -114.7475723,
            36.2257192
          ],
          [
            -114.7475178,
            36.2254336
          ],
          [
            -114.7473479,
            36.2249997
          ],
          [
            -114.7471715,
            36.2246208
          ],
          [
            -114.746805,
            36.2239947
          ],
          [
            -114.7463978,
            36.2234456
          ],
          [
            -114.74595,
            36.2229899
          ],
          [
            -114.7455022,
            36.2224023
          ],
          [
            -114.7450883,
            36.222007
          ],
          [
            -114.7445387,
            36.2213205
          ],
          [
            -114.743765,
            36.2200465
          ],
          [
            -114.7435615,
            36.2197829
          ],
          [
            -114.7433715,
            36.2196072
          ],
          [
            -114.7432223,
            36.2195193
          ],
          [
            -114.742924,
            36.2194206
          ],
          [
            -114.7425511,
            36.2193329
          ],
          [
            -114.7420968,
            36.2192947
          ],
          [
            -114.7419477,
            36.2193167
          ],
          [
            -114.7415682,
            36.2194597
          ],
          [
            -114.7413513,
            36.2196575
          ],
          [
            -114.7412024,
            36.2198718
          ],
          [
            -114.7411002,
            36.2198935
          ],
          [
            -114.7408108,
            36.2199121
          ],
          [
            -114.7404055,
            36.2195803
          ],
          [
            -114.7402026,
            36.2191684
          ],
          [
            -114.7400745,
            36.2182116
          ],
          [
            -114.7401001,
            36.2168076
          ],
          [
            -114.7402616,
            36.2142837
          ],
          [
            -114.7406629,
            36.2140588
          ],
          [
            -114.740776,
            36.2133781
          ],
          [
            -114.7406178,
            36.2110687
          ],
          [
            -114.7403497,
            36.2106236
          ],
          [
            -114.7402593,
            36.2085582
          ],
          [
            -114.7405423,
            36.2078353
          ],
          [
            -114.7410341,
            36.2070099
          ],
          [
            -114.7408612,
            36.2065866
          ],
          [
            -114.7403922,
            36.2059394
          ],
          [
            -114.7400249,
            36.2050206
          ],
          [
            -114.7398532,
            36.2044702
          ],
          [
            -114.7395965,
            36.2036143
          ],
          [
            -114.7395613,
            36.2028841
          ],
          [
            -114.7393953,
            36.2021363
          ],
          [
            -114.7393417,
            36.2013905
          ],
          [
            -114.7390829,
            36.2006105
          ],
          [
            -114.7388732,
            36.2000746
          ],
          [
            -114.738429,
            36.1996552
          ],
          [
            -114.7384116,
            36.1985707
          ],
          [
            -114.7378335,
            36.1971212
          ],
          [
            -114.7374054,
            36.1963368
          ],
          [
            -114.7377275,
            36.1959091
          ],
          [
            -114.7377158,
            36.1953379
          ],
          [
            -114.7377551,
            36.1949506
          ],
          [
            -114.7377675,
            36.1948376
          ],
          [
            -114.7378031,
            36.1932846
          ],
          [
            -114.7377338,
            36.1917762
          ],
          [
            -114.7370661,
            36.1905077
          ],
          [
            -114.7366123,
            36.1901495
          ]
        ]
      }
    },
    {
      "type": "Feature",
      "properties": {
        "name": "West End Wash",
        "waterway": "river",
        "source": "OpenStreetMap"
      },
      "geometry": {
        "type": "LineString",
        "coordinates": [
          [
            -114.7365397,
            36.1899373
          ],
          [
            -114.7369639,
            36.1883869
          ],
          [
            -114.7380185,
            36.1844572
          ],
          [
            -114.7381969,
            36.1831632
          ],
          [
            -114.7381024,
            36.18236
          ],
          [
            -114.7368165,
            36.1812375
          ],
          [
            -114.7356213,
            36.1806759
          ],
          [
            -114.7350567,
            36.1804101
          ],
          [
            -114.73246,
            36.1797091
          ],
          [
            -114.730465,
            36.1789246
          ],
          [
            -114.7299072,
            36.1784991
          ],
          [
            -114.729668,
            36.1781746
          ],
          [
            -114.7293181,
            36.1776345
          ],
          [
            -114.7290986,
            36.1773416
          ],
          [
            -114.7289684,
            36.177228
          ],
          [
            -114.7289131,
            36.1769136
          ],
          [
            -114.7292976,
            36.1762418
          ],
          [
            -114.7298994,
            36.1747383
          ],
          [
            -114.7300248,
            36.1741138
          ],
          [
            -114.7300868,
            36.1734533
          ],
          [
            -114.7302357,
            36.1727596
          ],
          [
            -114.7302527,
            36.1721679
          ],
          [
            -114.7299607,
            36.1718663
          ],
          [
            -114.7294776,
            36.1714915
          ],
          [
            -114.7291188,
            36.1712757
          ],
          [
            -114.7289018,
            36.1706099
          ],
          [
            -114.7283562,
            36.1701642
          ],
          [
            -114.7281491,
            36.1698992
          ],
          [
            -114.7279788,
            36.1695373
          ],
          [
            -114.7278678,
            36.1692322
          ],
          [
            -114.7279207,
            36.1688849
          ],
          [
            -114.7279147,
            36.1683907
          ],
          [
            -114.7279874,
            36.1679017
          ],
          [
            -114.7280907,
            36.1672732
          ],
          [
            -114.7280456,
            36.1666511
          ],
          [
            -114.7268493,
            36.1647881
          ],
          [
            -114.7251605,
            36.1599993
          ],
          [
            -114.7248452,
            36.1589328
          ],
          [
            -114.7247183,
            36.1586653
          ],
          [
            -114.7245936,
            36.1583197
          ],
          [
            -114.724281,
            36.1572102
          ],
          [
            -114.723504,
            36.1555001
          ],
          [
            -114.7230697,
            36.1542696
          ],
          [
            -114.722152,
            36.1535032
          ],
          [
            -114.7218541,
            36.1531558
          ],
          [
            -114.7216407,
            36.1526918
          ],
          [
            -114.7213147,
            36.1521601
          ],
          [
            -114.7212378,
            36.1516807
          ],
          [
            -114.7212143,
            36.1514857
          ],
          [
            -114.7210229,
            36.1504023
          ],
          [
            -114.7207304,
            36.1486386
          ],
          [
            -114.720669,
            36.1472485
          ],
          [
            -114.7208958,
            36.1460791
          ],
          [
            -114.7204997,
            36.1444028
          ],
          [
            -114.7204759,
            36.1430725
          ],
          [
            -114.7203847,
            36.1425354
          ],
          [
            -114.719977,
            36.1420935
          ],
          [
            -114.7186681,
            36.1413311
          ],
          [
            -114.7170777,
            36.140693
          ],
          [
            -114.7142115,
            36.1393644
          ],
          [
            -114.709072,
            36.1375247
          ]
        ]
      }
    },
    {
      "type": "Feature",
      "properties": {
        "name": "Callville Wash",
        "waterway": "river",
        "source": "OpenStreetMap"
      },
      "geometry": {
        "type": "LineString",
        "coordinates": [
          [
            -114.6889649,
            36.1961502
          ],
          [
            -114.6890767,
            36.1960143
          ],
          [
            -114.6895314,
            36.1956738
          ],
          [
            -114.6894878,
            36.1946925
          ],
          [
            -114.6895704,
            36.1912334
          ],
          [
            -114.6895782,
            36.1903179
          ],
          [
            -114.6896751,
            36.1896214
          ],
          [
            -114.6897572,
            36.1894367
          ],
          [
            -114.6902191,
            36.1893526
          ],
          [
            -114.6908898,
            36.1893344
          ],
          [
            -114.6922264,
            36.1894534
          ],
          [
            -114.6926487,
            36.1894149
          ],
          [
            -114.6935754,
            36.1891535
          ],
          [
            -114.6939353,
            36.1883654
          ],
          [
            -114.6941557,
            36.1875356
          ],
          [
            -114.6945292,
            36.187053
          ],
          [
            -114.6946884,
            36.1869674
          ],
          [
            -114.6948578,
            36.1869071
          ],
          [
            -114.6952983,
            36.1866324
          ],
          [
            -114.6958946,
            36.1863138
          ],
          [
            -114.6963282,
            36.1860611
          ],
          [
            -114.696545,
            36.1858743
          ],
          [
            -114.6970193,
            36.1856106
          ],
          [
            -114.698117,
            36.185204
          ],
          [
            -114.6982525,
            36.1851161
          ],
          [
            -114.6983202,
            36.1849514
          ],
          [
            -114.6984151,
            36.1848744
          ],
          [
            -114.6992757,
            36.1844844
          ],
          [
            -114.7000997,
            36.1839202
          ],
          [
            -114.7014102,
            36.183176
          ],
          [
            -114.70219,
            36.1825546
          ],
          [
            -114.7031735,
            36.180546
          ],
          [
            -114.7034206,
            36.1799263
          ],
          [
            -114.7035244,
            36.1785106
          ],
          [
            -114.7026893,
            36.1764524
          ],
          [
            -114.7013913,
            36.1752799
          ],
          [
            -114.6998067,
            36.1746587
          ],
          [
            -114.6978459,
            36.1740809
          ],
          [
            -114.6971905,
            36.1737139
          ],
          [
            -114.6968899,
            36.1733199
          ],
          [
            -114.6967526,
            36.1730303
          ],
          [
            -114.6965235,
            36.1719887
          ],
          [
            -114.6969202,
            36.1694802
          ],
          [
            -114.6978662,
            36.1680831
          ],
          [
            -114.6986952,
            36.1677321
          ],
          [
            -114.7013915,
            36.1669102
          ],
          [
            -114.703883,
            36.1664513
          ],
          [
            -114.7066505,
            36.1661375
          ],
          [
            -114.7082231,
            36.1654162
          ],
          [
            -114.7101842,
            36.1646675
          ],
          [
            -114.7108231,
            36.1641905
          ],
          [
            -114.7112045,
            36.1636735
          ],
          [
            -114.7118015,
            36.1628518
          ],
          [
            -114.7118873,
            36.1618015
          ],
          [
            -114.7116975,
            36.1607347
          ],
          [
            -114.711353,
            36.1597658
          ],
          [
            -114.711152,
            36.1590988
          ],
          [
            -114.7109311,
            36.1586163
          ],
          [
            -114.7107682,
            36.1581348
          ],
          [
            -114.7104408,
            36.1570484
          ],
          [
            -114.7103839,
            36.1565567
          ],
          [
            -114.7099312,
            36.1554586
          ],
          [
            -114.7096014,
            36.1537672
          ],
          [
            -114.7094259,
            36.1525625
          ],
          [
            -114.7101554,
            36.1509425
          ],
          [
            -114.7106114,
            36.149578
          ],
          [
            -114.7107347,
            36.1488438
          ],
          [
            -114.7107992,
            36.1470375
          ],
          [
            -114.7115323,
            36.1447607
          ],
          [
            -114.7117667,
            36.1426456
          ],
          [
            -114.7111903,
            36.1400319
          ],
          [
            -114.7105374,
            36.1389662
          ],
          [
            -114.709072,
            36.1375247
          ],
          [
            -114.7015337,
            36.1347776
          ],
          [
            -114.6957597,
            36.1259441
          ],
          [
            -114.6976494,
            36.1112807
          ]
        ]
      }
    },
    {
      "type": "Feature",
      "properties": {
        "name": "River",
        "waterway": "river",
        "source": "OpenStreetMap"
      },
      "geometry": {
        "type": "LineString",
        "coordinates": [
          [
            -114.7374054,
            36.1963368
          ],
          [
            -114.7364154,
            36.195496
          ],
          [
            -114.7357537,
            36.1940222
          ],
          [
            -114.7356411,
            36.1930382
          ],
          [
            -114.7356681,
            36.1921025
          ],
          [
            -114.7355397,
            36.191338
          ],
          [
            -114.7359844,
            36.1908983
          ],
          [
            -114.7370661,
            36.1905077
          ]
        ]
      }
    },
    {
      "type": "Feature",
      "properties": {
        "name": "River",
        "waterway": "canal",
        "source": "OpenStreetMap"
      },
      "geometry": {
        "type": "LineString",
        "coordinates": [
          [
            -115.0350189,
            36.1178625
          ],
          [
            -115.0347789,
            36.1181318
          ]
        ]
      }
    },
    {
      "type": "Feature",
      "properties": {
        "name": "River",
        "waterway": "canal",
        "source": "OpenStreetMap"
      },
      "geometry": {
        "type": "LineString",
        "coordinates": [
          [
            -115.0259532,
            36.1101343
          ],
          [
            -115.025842,
            36.1100491
          ],
          [
            -115.024327,
            36.1097557
          ]
        ]
      }
    },
    {
      "type": "Feature",
      "properties": {
        "name": "River",
        "waterway": "canal",
        "source": "OpenStreetMap"
      },
      "geometry": {
        "type": "LineString",
        "coordinates": [
          [
            -115.0378095,
            36.1149691
          ],
          [
            -115.0378053,
            36.1149819
          ],
          [
            -115.0377875,
            36.1149941
          ],
          [
            -115.0377602,
            36.1149995
          ],
          [
            -115.0354092,
            36.1149772
          ],
          [
            -115.0340013,
            36.1149607
          ],
          [
            -115.0333752,
            36.1149439
          ],
          [
            -115.0333066,
            36.1149387
          ],
          [
            -115.0332348,
            36.1149123
          ],
          [
            -115.0332054,
            36.1148225
          ],
          [
            -115.0332086,
            36.1122152
          ],
          [
            -115.0331433,
            36.1120094
          ],
          [
            -115.0330616,
            36.1118959
          ],
          [
            -115.0329179,
            36.1117772
          ],
          [
            -115.0323201,
            36.1114684
          ],
          [
            -115.0305822,
            36.1113945
          ],
          [
            -115.0304519,
            36.1113309
          ]
        ]
      }
    },
    {
      "type": "Feature",
      "properties": {
        "name": "River",
        "waterway": "canal",
        "source": "OpenStreetMap"
      },
      "geometry": {
        "type": "LineString",
        "coordinates": [
          [
            -115.0304519,
            36.1113309
          ],
          [
            -115.0301576,
            36.1111623
          ],
          [
            -115.0297616,
            36.1110723
          ],
          [
            -115.0270915,
            36.1110493
          ],
          [
            -115.0270287,
            36.1110308
          ],
          [
            -115.0269146,
            36.1109502
          ],
          [
            -115.0259532,
            36.1101343
          ]
        ]
      }
    },
    {
      "type": "Feature",
      "properties": {
        "name": "River",
        "waterway": "canal",
        "source": "OpenStreetMap"
      },
      "geometry": {
        "type": "LineString",
        "coordinates": [
          [
            -115.0298626,
            36.1149933
          ],
          [
            -115.0298121,
            36.1149646
          ],
          [
            -115.0297875,
            36.1149569
          ],
          [
            -115.0294274,
            36.1149263
          ],
          [
            -115.0292972,
            36.1149224
          ]
        ]
      }
    },
    {
      "type": "Feature",
      "properties": {
        "name": "River",
        "waterway": "canal",
        "source": "OpenStreetMap"
      },
      "geometry": {
        "type": "LineString",
        "coordinates": [
          [
            -115.0289152,
            36.1148438
          ],
          [
            -115.028779,
            36.1148025
          ],
          [
            -115.028569,
            36.1147306
          ]
        ]
      }
    },
    {
      "type": "Feature",
      "properties": {
        "name": "River",
        "waterway": "canal",
        "source": "OpenStreetMap"
      },
      "geometry": {
        "type": "LineString",
        "coordinates": [
          [
            -115.0292972,
            36.1149224
          ],
          [
            -115.0289152,
            36.1148438
          ]
        ]
      }
    },
    {
      "type": "Feature",
      "properties": {
        "name": "River",
        "waterway": "canal",
        "source": "OpenStreetMap"
      },
      "geometry": {
        "type": "LineString",
        "coordinates": [
          [
            -114.924578,
            36.063927
          ],
          [
            -114.9247166,
            36.0645969
          ],
          [
            -114.9248769,
            36.0654114
          ],
          [
            -114.9248769,
            36.0656131
          ],
          [
            -114.9248399,
            36.0659169
          ],
          [
            -114.924806,
            36.0660365
          ],
          [
            -114.9247629,
            36.0661884
          ],
          [
            -114.9245934,
            36.0667164
          ],
          [
            -114.9244116,
            36.0673191
          ],
          [
            -114.9243993,
            36.0675482
          ],
          [
            -114.924427,
            36.0678745
          ],
          [
            -114.9244705,
            36.0681895
          ],
          [
            -114.924516,
            36.0684358
          ],
          [
            -114.9246082,
            36.0687472
          ],
          [
            -114.924739,
            36.0691747
          ],
          [
            -114.9248604,
            36.0695635
          ],
          [
            -114.9250577,
            36.0702345
          ],
          [
            -114.9252527,
            36.07088
          ],
          [
            -114.9253725,
            36.0711721
          ],
          [
            -114.9255522,
            36.0714887
          ],
          [
            -114.9258257,
            36.0719114
          ],
          [
            -114.9259034,
            36.0720142
          ]
        ]
      }
    },
    {
      "type": "Feature",
      "properties": {
        "name": "River",
        "waterway": "canal",
        "source": "OpenStreetMap"
      },
      "geometry": {
        "type": "LineString",
        "coordinates": [
          [
            -114.9241468,
            36.0670734
          ],
          [
            -114.9244116,
            36.0673191
          ]
        ]
      }
    },
    {
      "type": "Feature",
      "properties": {
        "name": "River",
        "waterway": "canal",
        "source": "OpenStreetMap"
      },
      "geometry": {
        "type": "LineString",
        "coordinates": [
          [
            -114.926364,
            36.065665
          ],
          [
            -114.9250692,
            36.0660692
          ],
          [
            -114.9250265,
            36.0660741
          ],
          [
            -114.924806,
            36.0660365
          ]
        ]
      }
    },
    {
      "type": "Feature",
      "properties": {
        "name": "River",
        "waterway": "canal",
        "source": "OpenStreetMap"
      },
      "geometry": {
        "type": "LineString",
        "coordinates": [
          [
            -114.9123825,
            36.1252978
          ],
          [
            -114.9122498,
            36.1255064
          ],
          [
            -114.9120947,
            36.1257504
          ],
          [
            -114.9119633,
            36.1258832
          ],
          [
            -114.9117173,
            36.1259698
          ],
          [
            -114.9111524,
            36.12607
          ],
          [
            -114.9104781,
            36.1259971
          ],
          [
            -114.909494,
            36.1256144
          ],
          [
            -114.908847,
            36.1250404
          ],
          [
            -114.9080543,
            36.1241839
          ],
          [
            -114.9067103,
            36.1222703
          ],
          [
            -114.9062173,
            36.1217043
          ]
        ]
      }
    },
    {
      "type": "Feature",
      "properties": {
        "name": "River",
        "waterway": "river",
        "source": "OpenStreetMap"
      },
      "geometry": {
        "type": "LineString",
        "coordinates": [
          [
            -115.0513597,
            36.1144667
          ],
          [
            -115.0512444,
            36.1143684
          ],
          [
            -115.0512284,
            36.1141847
          ],
          [
            -115.0511707,
            36.1135844
          ],
          [
            -115.0510938,
            36.1125002
          ],
          [
            -115.0510138,
            36.1113099
          ],
          [
            -115.0509529,
            36.1102955
          ],
          [
            -115.0509081,
            36.1092527
          ],
          [
            -115.0508824,
            36.1085048
          ],
          [
            -115.0508696,
            36.1083625
          ],
          [
            -115.0507992,
            36.1082021
          ],
          [
            -115.0506582,
            36.1080623
          ],
          [
            -115.0505205,
            36.107995
          ],
          [
            -115.0502707,
            36.1079407
          ],
          [
            -115.0500048,
            36.1079407
          ],
          [
            -115.0483104,
            36.1079562
          ],
          [
            -115.0473412,
            36.1079646
          ]
        ]
      }
    },
    {
      "type": "Feature",
      "properties": {
        "name": "River",
        "waterway": "river",
        "source": "OpenStreetMap"
      },
      "geometry": {
        "type": "LineString",
        "coordinates": [
          [
            -115.0473412,
            36.1079646
          ],
          [
            -115.0471478,
            36.1079657
          ]
        ]
      }
    },
    {
      "type": "Feature",
      "properties": {
        "name": "River",
        "waterway": "canal",
        "source": "OpenStreetMap"
      },
      "geometry": {
        "type": "LineString",
        "coordinates": [
          [
            -115.0099073,
            36.0836431
          ],
          [
            -115.0094371,
            36.0841229
          ],
          [
            -115.0089406,
            36.0845306
          ],
          [
            -115.007966,
            36.0852588
          ],
          [
            -115.0076428,
            36.0854095
          ],
          [
            -115.0074405,
            36.0854413
          ],
          [
            -115.0060088,
            36.0854689
          ],
          [
            -115.0052598,
            36.0856029
          ],
          [
            -115.0051215,
            36.0856369
          ],
          [
            -115.0046467,
            36.0857195
          ],
          [
            -115.0041058,
            36.0863897
          ],
          [
            -115.0028977,
            36.0866909
          ],
          [
            -115.001751,
            36.0881992
          ],
          [
            -115.0014445,
            36.088748
          ],
          [
            -115.0012443,
            36.0891601
          ],
          [
            -115.0009396,
            36.0897874
          ],
          [
            -115.0001545,
            36.0907043
          ]
        ]
      }
    },
    {
      "type": "Feature",
      "properties": {
        "name": "River",
        "waterway": "canal",
        "source": "OpenStreetMap"
      },
      "geometry": {
        "type": "LineString",
        "coordinates": [
          [
            -115.014366,
            36.0713278
          ],
          [
            -115.0123003,
            36.0713371
          ],
          [
            -115.0121321,
            36.0713881
          ],
          [
            -115.0120094,
            36.0714844
          ],
          [
            -115.0119708,
            36.0715524
          ],
          [
            -115.0119358,
            36.0729519
          ],
          [
            -115.0118692,
            36.0746177
          ],
          [
            -115.011743,
            36.0779633
          ],
          [
            -115.0117079,
            36.0784874
          ]
        ]
      }
    },
    {
      "type": "Feature",
      "properties": {
        "name": "River",
        "waterway": "canal",
        "source": "OpenStreetMap"
      },
      "geometry": {
        "type": "LineString",
        "coordinates": [
          [
            -115.010107,
            36.083416
          ],
          [
            -115.0099073,
            36.0836431
          ]
        ]
      }
    },
    {
      "type": "Feature",
      "properties": {
        "name": "River",
        "waterway": "canal",
        "source": "OpenStreetMap"
      },
      "geometry": {
        "type": "LineString",
        "coordinates": [
          [
            -115.0111184,
            36.0794203
          ],
          [
            -115.0110737,
            36.080794
          ],
          [
            -115.0110264,
            36.0813014
          ],
          [
            -115.0108635,
            36.0819574
          ],
          [
            -115.0106534,
            36.0825009
          ],
          [
            -115.0103329,
            36.0830805
          ],
          [
            -115.010107,
            36.083416
          ]
        ]
      }
    },
    {
      "type": "Feature",
      "properties": {
        "name": "River",
        "waterway": "canal",
        "source": "OpenStreetMap"
      },
      "geometry": {
        "type": "LineString",
        "coordinates": [
          [
            -115.0117079,
            36.0784874
          ],
          [
            -115.0111184,
            36.0794203
          ]
        ]
      }
    },
    {
      "type": "Feature",
      "properties": {
        "name": "River",
        "waterway": "canal",
        "source": "OpenStreetMap"
      },
      "geometry": {
        "type": "LineString",
        "coordinates": [
          [
            -115.0379871,
            36.1139765
          ],
          [
            -115.0378737,
            36.1146988
          ],
          [
            -115.0378475,
            36.1148538
          ]
        ]
      }
    },
    {
      "type": "Feature",
      "properties": {
        "name": "River",
        "waterway": "canal",
        "source": "OpenStreetMap"
      },
      "geometry": {
        "type": "LineString",
        "coordinates": [
          [
            -115.0378475,
            36.1148538
          ],
          [
            -115.0378095,
            36.1149691
          ]
        ]
      }
    },
    {
      "type": "Feature",
      "properties": {
        "name": "Colorado River",
        "waterway": "river",
        "source": "OpenStreetMap"
      },
      "geometry": {
        "type": "LineString",
        "coordinates": [
          [
            -114.7384917,
            36.0152714
          ],
          [
            -114.7400563,
            36.0141219
          ],
          [
            -114.7401895,
            36.0139963
          ],
          [
            -114.7406262,
            36.0134261
          ],
          [
            -114.7412685,
            36.012611
          ]
        ]
      }
    },
    {
      "type": "Feature",
      "properties": {
        "name": "Colorado River",
        "waterway": "river",
        "source": "OpenStreetMap"
      },
      "geometry": {
        "type": "LineString",
        "coordinates": [
          [
            -114.7382549,
            36.0154513
          ],
          [
            -114.7383565,
            36.0153741
          ],
          [
            -114.7384917,
            36.0152714
          ]
        ]
      }
    },
    {
      "type": "Feature",
      "properties": {
        "name": "Colorado River",
        "waterway": "river",
        "source": "OpenStreetMap"
      },
      "geometry": {
        "type": "LineString",
        "coordinates": [
          [
            -114.7414205,
            36.0124048
          ],
          [
            -114.7420057,
            36.0115692
          ],
          [
            -114.7422983,
            36.0110123
          ]
        ]
      }
    },
    {
      "type": "Feature",
      "properties": {
        "name": "Colorado River",
        "waterway": "river",
        "source": "OpenStreetMap"
      },
      "geometry": {
        "type": "LineString",
        "coordinates": [
          [
            -114.7412685,
            36.012611
          ],
          [
            -114.7414205,
            36.0124048
          ]
        ]
      }
    },
    {
      "type": "Feature",
      "properties": {
        "name": "Colorado River",
        "waterway": "river",
        "source": "OpenStreetMap"
      },
      "geometry": {
        "type": "LineString",
        "coordinates": [
          [
            -114.7373518,
            36.016195
          ],
          [
            -114.7380286,
            36.0156181
          ],
          [
            -114.7382549,
            36.0154513
          ]
        ]
      }
    },
    {
      "type": "Feature",
      "properties": {
        "name": "Colorado River",
        "waterway": "river",
        "source": "OpenStreetMap"
      },
      "geometry": {
        "type": "LineString",
        "coordinates": [
          [
            -114.7372349,
            36.0162902
          ],
          [
            -114.7373518,
            36.016195
          ]
        ]
      }
    },
    {
      "type": "Feature",
      "properties": {
        "name": "River",
        "waterway": "canal",
        "source": "OpenStreetMap"
      },
      "geometry": {
        "type": "LineString",
        "coordinates": [
          [
            -114.9259034,
            36.0720142
          ],
          [
            -114.9263998,
            36.0725531
          ]
        ]
      }
    }
  ]
}